[
    {
        "placeName": "돌오름",
        "category": "여행 > 관광,명소 > 오름",
        "addressJibun": "제주특별자치도 제주시 월평동 산 6-9",
        "longitude": 126.568547151728640,
        "latitude": 33.380602529284616,
        "placeUrl": "http://place.map.kakao.com/7833931"
    },
    {
        "placeName": "입석오름",
        "category": "여행 > 관광,명소 > 오름",
        "addressJibun": "제주특별자치도 서귀포시 남원읍 하례리 산 1-7",
        "longitude": 126.569633146994960,
        "latitude": 33.356700019846954,
        "placeUrl": "http://place.map.kakao.com/25343687"
    },
    {
        "placeName": "들레오름",
        "category": "여행 > 관광,명소 > 오름",
        "addressJibun": "제주특별자치도 제주시 월평동 665-1",
        "longitude": 126.580439267234480,
        "latitude": 33.458905446649890,
        "placeUrl": "http://place.map.kakao.com/25222743"
    },
    {
        "placeName": "인정오름",
        "category": "여행 > 관광,명소 > 오름",
        "addressJibun": "제주특별자치도 서귀포시 토평동 1952",
        "longitude": 126.584863744609600,
        "latitude": 33.284191213440664,
        "placeUrl": "http://place.map.kakao.com/8551890"
    },
    {
        "placeName": "봉아오름",
        "category": "여행 > 관광,명소 > 오름",
        "addressJibun": "제주특별자치도 제주시 봉개동 1804",
        "longitude": 126.592518841667000,
        "latitude": 33.494283902520800,
        "placeUrl": "http://place.map.kakao.com/11054575"
    },
    {
        "placeName": "성널오름",
        "category": "여행 > 관광,명소 > 오름",
        "addressJibun": "제주특별자치도 제주시 조천읍 교래리 산 137-2",
        "longitude": 126.591602591303980,
        "latitude": 33.373867037756130,
        "placeUrl": "http://place.map.kakao.com/8385052"
    },
    {
        "placeName": "칡오름",
        "category": "여행 > 관광,명소 > 오름",
        "addressJibun": "제주특별자치도 서귀포시 상효동 2308-1",
        "longitude": 126.602894324125900,
        "latitude": 33.283930946669130,
        "placeUrl": "http://place.map.kakao.com/8547569"
    },
    {
        "placeName": "고냉이굴오름",
        "category": "여행 > 관광,명소 > 오름",
        "addressJibun": "제주특별자치도 제주시 봉개동",
        "longitude": 126.616111541023000,
        "latitude": 33.477557049123200,
        "placeUrl": "http://place.map.kakao.com/25176062"
    },
    {
        "placeName": "셋개오리",
        "category": "여행 > 관광,명소 > 오름",
        "addressJibun": "제주특별자치도 제주시 봉개동",
        "longitude": 126.614652638303000,
        "latitude": 33.429897388950400,
        "placeUrl": "http://place.map.kakao.com/17782147"
    },
    {
        "placeName": "서걸세",
        "category": "여행 > 관광,명소 > 오름",
        "addressJibun": "제주특별자치도 서귀포시 남원읍 하례리 산 130",
        "longitude": 126.617889856311000,
        "latitude": 33.280758233771600,
        "placeUrl": "http://place.map.kakao.com/17781640"
    },
    {
        "placeName": "제지기오름",
        "category": "여행 > 관광,명소 > 오름",
        "addressJibun": "제주특별자치도 서귀포시 보목동 275-1",
        "longitude": 126.609475286291500,
        "latitude": 33.241627456633800,
        "placeUrl": "http://place.map.kakao.com/10801781"
    },
    {
        "placeName": "큰노루손이오름",
        "category": "여행 > 관광,명소 > 오름",
        "addressJibun": "제주특별자치도 제주시 봉개동 234-231",
        "longitude": 126.621764118575160,
        "latitude": 33.458755303714730,
        "placeUrl": "http://place.map.kakao.com/25379468"
    },
    {
        "placeName": "족은노루손이",
        "category": "여행 > 관광,명소 > 오름",
        "addressJibun": "제주특별자치도 제주시 봉개동 234-231",
        "longitude": 126.618127887376720,
        "latitude": 33.458880299072940,
        "placeUrl": "http://place.map.kakao.com/10801926"
    },
    {
        "placeName": "거친오름",
        "category": "여행 > 관광,명소 > 오름",
        "addressJibun": "제주특별자치도 제주시 봉개동 산 66",
        "longitude": 126.619485773259340,
        "latitude": 33.444500290418990,
        "placeUrl": "http://place.map.kakao.com/10129920"
    },
    {
        "placeName": "진물굼부리",
        "category": "여행 > 관광,명소 > 오름",
        "addressJibun": "제주특별자치도 제주시 봉개동 산 78-1",
        "addressDoro": "제주특별자치도 제주시 명림로 584",
        "longitude": 126.626334381210000,
        "latitude": 33.438978046789600,
        "placeUrl": "http://place.map.kakao.com/8078733"
    },
    {
        "placeName": "넙거리오름",
        "category": "여행 > 관광,명소 > 오름",
        "addressJibun": "제주특별자치도 제주시 조천읍 교래리 산 137-1",
        "longitude": 126.625749814206710,
        "latitude": 33.396266174357630,
        "placeUrl": "http://place.map.kakao.com/10186346"
    },
    {
        "placeName": "한라산 섯궤펜이",
        "category": "여행 > 관광,명소 > 오름",
        "addressJibun": "제주특별자치도 서귀포시 남원읍 한남리 산 2-1",
        "longitude": 126.628472675130000,
        "latitude": 33.391419173701300,
        "placeUrl": "http://place.map.kakao.com/7940835"
    },
    {
        "placeName": "걸서악",
        "category": "여행 > 관광,명소 > 오름",
        "addressJibun": "제주특별자치도 서귀포시 남원읍 하례리 산 124",
        "longitude": 126.619794939036600,
        "latitude": 33.282313974071520,
        "placeUrl": "http://place.map.kakao.com/8183004"
    },
    {
        "placeName": "돈두악",
        "category": "여행 > 관광,명소 > 오름",
        "addressJibun": "제주특별자치도 서귀포시 대정읍 영락리 1487-1",
        "longitude": 126.210242025780300,
        "latitude": 33.249891661302605,
        "placeUrl": "http://place.map.kakao.com/7832617"
    },
    {
        "placeName": "널개오름",
        "category": "여행 > 관광,명소 > 오름",
        "addressJibun": "제주특별자치도 제주시 한경면 판포리 935-1",
        "longitude": 126.213382833650000,
        "latitude": 33.358005164962900,
        "placeUrl": "http://place.map.kakao.com/237503897"
    },
    {
        "placeName": "말찻오름",
        "category": "여행 > 관광,명소 > 오름",
        "addressJibun": "제주특별자치도 제주시 조천읍 교래리 산 137-1",
        "longitude": 126.654247093703080,
        "latitude": 33.400569294048080,
        "placeUrl": "http://place.map.kakao.com/7860797"
    },
    {
        "placeName": "두강봉",
        "category": "여행 > 관광,명소 > 오름",
        "addressJibun": "제주특별자치도 제주시 한경면 조수리 1277",
        "longitude": 126.223301277581000,
        "latitude": 33.335885698680600,
        "placeUrl": "http://place.map.kakao.com/26455799"
    },
    {
        "placeName": "늡서리",
        "category": "여행 > 관광,명소 > 오름",
        "addressJibun": "제주특별자치도 제주시 조천읍 교래리 산 95",
        "addressDoro": "제주특별자치도 제주시 조천읍 남조로 2023",
        "longitude": 126.662947454502000,
        "latitude": 33.441784172486400,
        "placeUrl": "http://place.map.kakao.com/8216051"
    },
    {
        "placeName": "서우봉",
        "category": "여행 > 관광,명소 > 오름",
        "addressJibun": "제주특별자치도 제주시 조천읍 함덕리 169-3",
        "longitude": 126.677585891386240,
        "latitude": 33.545841551663350,
        "placeUrl": "http://place.map.kakao.com/25280784"
    },
    {
        "placeName": "가메창",
        "category": "여행 > 관광,명소 > 오름",
        "addressJibun": "제주특별자치도 제주시 한경면 저지리 1469",
        "longitude": 126.248582416639000,
        "latitude": 33.329762495534200,
        "placeUrl": "http://place.map.kakao.com/8109089"
    },
    {
        "placeName": "가마오름",
        "category": "여행 > 관광,명소 > 오름",
        "addressJibun": "제주특별자치도 제주시 한경면 청수리 1202-1",
        "longitude": 126.247014195685570,
        "latitude": 33.305549551538470,
        "placeUrl": "http://place.map.kakao.com/9440927"
    },
    {
        "placeName": "당오름",
        "category": "여행 > 관광,명소 > 오름",
        "addressJibun": "제주특별자치도 제주시 조천읍 와산리 산 7-5",
        "longitude": 126.687624888208480,
        "latitude": 33.478561238574486,
        "placeUrl": "http://place.map.kakao.com/7814464"
    },
    {
        "placeName": "가문이오름",
        "category": "여행 > 관광,명소 > 오름",
        "addressJibun": "제주특별자치도 서귀포시 표선면 가시리 산 158-2",
        "longitude": 126.688207159561000,
        "latitude": 33.402136114709300,
        "placeUrl": "http://place.map.kakao.com/8111492"
    },
    {
        "placeName": "느지리오름",
        "category": "여행 > 관광,명소 > 오름",
        "addressJibun": "제주특별자치도 제주시 한림읍 상명리 산 5",
        "longitude": 126.261594058120000,
        "latitude": 33.366567968017000,
        "placeUrl": "http://place.map.kakao.com/7862701"
    },
    {
        "placeName": "민오름",
        "category": "여행 > 관광,명소 > 오름",
        "addressJibun": "제주특별자치도 제주시 조천읍 선흘리 산 142",
        "longitude": 126.695111059809880,
        "latitude": 33.448419399650020,
        "placeUrl": "http://place.map.kakao.com/7881286"
    },
    {
        "placeName": "여문영아리",
        "category": "여행 > 관광,명소 > 오름",
        "addressJibun": "제주특별자치도 서귀포시 표선면 가시리 산 145",
        "longitude": 126.694233820369900,
        "latitude": 33.382658195850930,
        "placeUrl": "http://place.map.kakao.com/17788803"
    },
    {
        "placeName": "운지악",
        "category": "여행 > 관광,명소 > 오름",
        "addressJibun": "제주특별자치도 서귀포시 남원읍 남원리 760-2",
        "longitude": 126.704694337563480,
        "latitude": 33.299483578134020,
        "placeUrl": "http://place.map.kakao.com/10698145"
    },
    {
        "placeName": "마중오름",
        "category": "여행 > 관광,명소 > 오름",
        "addressJibun": "제주특별자치도 제주시 한경면 저지리 2143-8",
        "longitude": 126.270608720400800,
        "latitude": 33.334652431900710,
        "placeUrl": "http://place.map.kakao.com/10337128"
    },
    {
        "placeName": "알밤오름",
        "category": "여행 > 관광,명소 > 오름",
        "addressJibun": "제주특별자치도 제주시 조천읍 선흘리 산 59-2",
        "longitude": 126.712617241551090,
        "latitude": 33.491144058553600,
        "placeUrl": "http://place.map.kakao.com/8490981"
    },
    {
        "placeName": "골체오름",
        "category": "여행 > 관광,명소 > 오름",
        "addressJibun": "제주특별자치도 제주시 조천읍 선흘리 1912",
        "longitude": 126.704584050134000,
        "latitude": 33.450700855377000,
        "placeUrl": "http://place.map.kakao.com/8188069"
    },
    {
        "placeName": "방주오름",
        "category": "여행 > 관광,명소 > 오름",
        "addressJibun": "제주특별자치도 제주시 한림읍 명월리 679",
        "longitude": 126.282959985719000,
        "latitude": 33.379034242210100,
        "placeUrl": "http://place.map.kakao.com/10393740"
    },
    {
        "placeName": "부소오름",
        "category": "여행 > 관광,명소 > 오름",
        "addressJibun": "제주특별자치도 제주시 조천읍 교래리 산 2",
        "longitude": 126.717752686321920,
        "latitude": 33.442191499996120,
        "placeUrl": "http://place.map.kakao.com/8363069"
    },
    {
        "placeName": "웅악",
        "category": "여행 > 관광,명소 > 오름",
        "addressJibun": "제주특별자치도 서귀포시 남원읍 수망리 127",
        "longitude": 126.724315157619200,
        "latitude": 33.330809704642530,
        "placeUrl": "http://place.map.kakao.com/8027471"
    },
    {
        "placeName": "단산",
        "category": "여행 > 관광,명소 > 오름",
        "addressJibun": "제주특별자치도 서귀포시 대정읍 인성리 21-2",
        "longitude": 126.288333521231460,
        "latitude": 33.242860738077040,
        "placeUrl": "http://place.map.kakao.com/8306005"
    },
    {
        "placeName": "큰사슴이오름",
        "category": "여행 > 관광,명소 > 오름",
        "addressJibun": "제주특별자치도 서귀포시 표선면 가시리 산 68-9",
        "longitude": 126.729544016654490,
        "latitude": 33.399144165187494,
        "placeUrl": "http://place.map.kakao.com/25204904"
    },
    {
        "placeName": "여절악",
        "category": "여행 > 관광,명소 > 오름",
        "addressJibun": "제주특별자치도 서귀포시 남원읍 신흥리 산 18",
        "longitude": 126.736464232971020,
        "latitude": 33.348930764247960,
        "placeUrl": "http://place.map.kakao.com/8004025"
    },
    {
        "placeName": "북오름",
        "category": "여행 > 관광,명소 > 오름",
        "addressJibun": "제주특별자치도 제주시 구좌읍 덕천리 산 69",
        "longitude": 126.740167035717500,
        "latitude": 33.487291931664700,
        "placeUrl": "http://place.map.kakao.com/7912662"
    },
    {
        "placeName": "어도오름",
        "category": "여행 > 관광,명소 > 오름",
        "addressJibun": "제주특별자치도 제주시 애월읍 봉성리 3920-35",
        "longitude": 126.308466582303720,
        "latitude": 33.420555773359720,
        "placeUrl": "http://place.map.kakao.com/25316350"
    },
    {
        "placeName": "눈오름",
        "category": "여행 > 관광,명소 > 오름",
        "addressJibun": "제주특별자치도 제주시 애월읍 봉성리 2952-2",
        "longitude": 126.311046673976000,
        "latitude": 33.408473483482600,
        "placeUrl": "http://place.map.kakao.com/8221826"
    },
    {
        "placeName": "알선족이오름",
        "category": "여행 > 관광,명소 > 오름",
        "addressJibun": "제주특별자치도 제주시 구좌읍 송당리 산 140-2",
        "longitude": 126.749099257674000,
        "latitude": 33.443124427123300,
        "placeUrl": "http://place.map.kakao.com/7997933"
    },
    {
        "placeName": "선족이오름",
        "category": "여행 > 관광,명소 > 오름",
        "addressJibun": "제주특별자치도 제주시 구좌읍 송당리 산 141",
        "longitude": 126.751546841617000,
        "latitude": 33.442802972393300,
        "placeUrl": "http://place.map.kakao.com/246058408"
    },
    {
        "placeName": "웃선족이오름",
        "category": "여행 > 관광,명소 > 오름",
        "addressJibun": "제주특별자치도 제주시 구좌읍 송당리 산 140-2",
        "longitude": 126.747768703061000,
        "latitude": 33.442083074037800,
        "placeUrl": "http://place.map.kakao.com/8026958"
    },
    {
        "placeName": "성불오름",
        "category": "여행 > 관광,명소 > 오름",
        "addressJibun": "제주특별자치도 제주시 구좌읍 송당리 산 266",
        "longitude": 126.749988655701760,
        "latitude": 33.422125002349010,
        "placeUrl": "http://place.map.kakao.com/7951103"
    },
    {
        "placeName": "새끼오름",
        "category": "여행 > 관광,명소 > 오름",
        "addressJibun": "제주특별자치도 서귀포시 표선면 성읍리 3196",
        "longitude": 126.751030215469680,
        "latitude": 33.396608709425230,
        "placeUrl": "http://place.map.kakao.com/8387235"
    },
    {
        "placeName": "따라비오름",
        "category": "여행 > 관광,명소 > 오름",
        "addressJibun": "제주특별자치도 서귀포시 표선면 가시리 산 63",
        "longitude": 126.752858386101000,
        "latitude": 33.388706988422800,
        "placeUrl": "http://place.map.kakao.com/25036598"
    },
    {
        "placeName": "세미소",
        "category": "여행 > 관광,명소 > 오름",
        "addressJibun": "제주특별자치도 제주시 한림읍 금악리 363",
        "longitude": 126.319945335598000,
        "latitude": 33.351346926603200,
        "placeUrl": "http://place.map.kakao.com/7949685"
    },
    {
        "placeName": "세미소오름",
        "category": "여행 > 관광,명소 > 오름",
        "addressJibun": "제주특별자치도 제주시 한림읍 금악리 365-1",
        "longitude": 126.323321913100000,
        "latitude": 33.349952563999100,
        "placeUrl": "http://place.map.kakao.com/237466193"
    },
    {
        "placeName": "입산봉",
        "category": "여행 > 관광,명소 > 오름",
        "addressJibun": "제주특별자치도 제주시 구좌읍 김녕리 1037-2",
        "longitude": 126.758203236655420,
        "latitude": 33.547566949040990,
        "placeUrl": "http://place.map.kakao.com/25343635"
    },
    {
        "placeName": "거슨세미오름",
        "category": "여행 > 관광,명소 > 오름",
        "addressJibun": "제주특별자치도 제주시 구좌읍 송당리 산 145",
        "longitude": 126.760131113193200,
        "latitude": 33.450229297101810,
        "placeUrl": "http://place.map.kakao.com/8174706"
    },
    {
        "placeName": "가메오름",
        "category": "여행 > 관광,명소 > 오름",
        "addressJibun": "제주특별자치도 제주시 애월읍 봉성리 산 124",
        "longitude": 126.335702114415000,
        "latitude": 33.367329244832300,
        "placeUrl": "http://place.map.kakao.com/10116894"
    },
    {
        "placeName": "정물오름",
        "category": "여행 > 관광,명소 > 오름",
        "addressJibun": "제주특별자치도 제주시 한림읍 금악리 산 52-1",
        "longitude": 126.329625510121000,
        "latitude": 33.338357885460600,
        "placeUrl": "http://place.map.kakao.com/25359013"
    },
    {
        "placeName": "북오름",
        "category": "여행 > 관광,명소 > 오름",
        "addressJibun": "제주특별자치도 서귀포시 안덕면 동광리 산 93",
        "longitude": 126.332072186203480,
        "latitude": 33.306289228768705,
        "placeUrl": "http://place.map.kakao.com/10447654"
    },
    {
        "placeName": "논오름",
        "category": "여행 > 관광,명소 > 오름",
        "addressJibun": "제주특별자치도 서귀포시 안덕면 상창리 2781",
        "longitude": 126.337712662506000,
        "latitude": 33.271322487330820,
        "placeUrl": "http://place.map.kakao.com/25198519"
    },
    {
        "placeName": "당오름",
        "category": "여행 > 관광,명소 > 오름",
        "addressJibun": "제주특별자치도 제주시 구좌읍 송당리 산 199-1",
        "longitude": 126.778602891715080,
        "latitude": 33.466599886225660,
        "placeUrl": "http://place.map.kakao.com/7814539"
    },
    {
        "placeName": "아부오름",
        "category": "여행 > 관광,명소 > 오름",
        "addressJibun": "제주특별자치도 제주시 구좌읍 송당리 2263",
        "longitude": 126.777214998455000,
        "latitude": 33.448584175562100,
        "placeUrl": "http://place.map.kakao.com/10599658"
    },
    {
        "placeName": "돌리미오름",
        "category": "여행 > 관광,명소 > 오름",
        "addressJibun": "제주특별자치도 제주시 구좌읍 송당리 산 255-1",
        "longitude": 126.772702731444620,
        "latitude": 33.431841197429144,
        "placeUrl": "http://place.map.kakao.com/25213746"
    },
    {
        "placeName": "개오름",
        "category": "여행 > 관광,명소 > 오름",
        "addressJibun": "제주특별자치도 서귀포시 표선면 성읍리 2974",
        "longitude": 126.771855981472260,
        "latitude": 33.422568364691570,
        "placeUrl": "http://place.map.kakao.com/10620522"
    },
    {
        "placeName": "설오름",
        "category": "여행 > 관광,명소 > 오름",
        "addressJibun": "제주특별자치도 서귀포시 표선면 가시리 산 1",
        "longitude": 126.769552319819920,
        "latitude": 33.371063769478795,
        "placeUrl": "http://place.map.kakao.com/7946961"
    },
    {
        "placeName": "알오름",
        "category": "여행 > 관광,명소 > 오름",
        "addressJibun": "제주특별자치도 서귀포시 표선면 토산리 산 11",
        "longitude": 126.777708446307160,
        "latitude": 33.327894476888940,
        "placeUrl": "http://place.map.kakao.com/11104042"
    },
    {
        "placeName": "염통오름",
        "category": "여행 > 관광,명소 > 오름",
        "addressJibun": "제주특별자치도 서귀포시 표선면 토산리",
        "longitude": 126.777613331683000,
        "latitude": 33.331089671041300,
        "placeUrl": "http://place.map.kakao.com/8476543"
    },
    {
        "placeName": "토산봉",
        "category": "여행 > 관광,명소 > 오름",
        "addressJibun": "제주특별자치도 서귀포시 표선면 토산리 산 13",
        "longitude": 126.774272729259240,
        "latitude": 33.322007869381856,
        "placeUrl": "http://place.map.kakao.com/8108616"
    },
    {
        "placeName": "감낭오름",
        "category": "여행 > 관광,명소 > 오름",
        "addressJibun": "제주특별자치도 서귀포시 안덕면 동광리 산 41",
        "longitude": 126.350180221501800,
        "latitude": 33.324919602553750,
        "placeUrl": "http://place.map.kakao.com/8674728"
    },
    {
        "placeName": "월라봉",
        "category": "여행 > 관광,명소 > 오름",
        "addressJibun": "제주특별자치도 서귀포시 안덕면 감산리 1144",
        "longitude": 126.349500264149240,
        "latitude": 33.243905260099630,
        "placeUrl": "http://place.map.kakao.com/25335651"
    },
    {
        "placeName": "안친오름",
        "category": "여행 > 관광,명소 > 오름",
        "addressJibun": "제주특별자치도 제주시 구좌읍 송당리 808",
        "longitude": 126.785958737520520,
        "latitude": 33.478466218197920,
        "placeUrl": "http://place.map.kakao.com/8494697"
    },
    {
        "placeName": "백약이오름",
        "category": "여행 > 관광,명소 > 오름",
        "addressJibun": "제주특별자치도 서귀포시 표선면 성읍리 산 1",
        "longitude": 126.789758231167000,
        "latitude": 33.436809406991000,
        "placeUrl": "http://place.map.kakao.com/25248461"
    },
    {
        "placeName": "갑선이오름",
        "category": "여행 > 관광,명소 > 오름",
        "addressJibun": "제주특별자치도 서귀포시 표선면 가시리 산 2",
        "longitude": 126.781663522978000,
        "latitude": 33.360855865290674,
        "placeUrl": "http://place.map.kakao.com/25169758"
    },
    {
        "placeName": "문석이오름",
        "category": "여행 > 관광,명소 > 오름",
        "addressJibun": "제주특별자치도 제주시 구좌읍 송당리 산 234",
        "longitude": 126.794524230857230,
        "latitude": 33.446428563973450,
        "placeUrl": "http://place.map.kakao.com/25237382"
    },
    {
        "placeName": "돔박이",
        "category": "여행 > 관광,명소 > 오름",
        "addressJibun": "제주특별자치도 서귀포시 안덕면 광평리 산 89",
        "longitude": 126.364335936115320,
        "latitude": 33.339471746624980,
        "placeUrl": "http://place.map.kakao.com/7834107"
    },
    {
        "placeName": "신산오름",
        "category": "여행 > 관광,명소 > 오름",
        "addressJibun": "제주특별자치도 서귀포시 안덕면 창천리 328",
        "longitude": 126.362542093931420,
        "latitude": 33.262869795628080,
        "placeUrl": "http://place.map.kakao.com/8433711"
    },
    {
        "placeName": "돝오름",
        "category": "여행 > 관광,명소 > 오름",
        "addressJibun": "제주특별자치도 제주시 구좌읍 송당리 산 3",
        "longitude": 126.801501618689680,
        "latitude": 33.481083297983360,
        "placeUrl": "http://place.map.kakao.com/17788818"
    },
    {
        "placeName": "동검은이오름",
        "category": "여행 > 관광,명소 > 오름",
        "addressJibun": "제주특별자치도 제주시 구좌읍 종달리 산 70",
        "longitude": 126.803672147448400,
        "latitude": 33.448944450650710,
        "placeUrl": "http://place.map.kakao.com/25214418"
    },
    {
        "placeName": "아슴선이",
        "category": "여행 > 관광,명소 > 오름",
        "addressJibun": "제주특별자치도 서귀포시 표선면 하천리 2437",
        "longitude": 126.807415217510000,
        "latitude": 33.368949963558800,
        "placeUrl": "http://place.map.kakao.com/17788462"
    },
    {
        "placeName": "눈오름",
        "category": "여행 > 관광,명소 > 오름",
        "addressJibun": "제주특별자치도 제주시 애월읍 장전리 1756",
        "longitude": 126.375711188343000,
        "latitude": 33.449831004946000,
        "placeUrl": "http://place.map.kakao.com/8220369"
    },
    {
        "placeName": "왕이메",
        "category": "여행 > 관광,명소 > 오름",
        "addressJibun": "제주특별자치도 서귀포시 안덕면 광평리 산 79",
        "longitude": 126.376574889894160,
        "latitude": 33.343546833930190,
        "placeUrl": "http://place.map.kakao.com/17788831"
    },
    {
        "placeName": "더더오름",
        "category": "여행 > 관광,명소 > 오름",
        "addressJibun": "제주특별자치도 서귀포시 상예동 4389-2",
        "longitude": 126.373608049515600,
        "latitude": 33.276855105172025,
        "placeUrl": "http://place.map.kakao.com/8264639"
    },
    {
        "placeName": "손지오름",
        "category": "여행 > 관광,명소 > 오름",
        "addressJibun": "제주특별자치도 제주시 구좌읍 종달리 산 52",
        "longitude": 126.819416621604000,
        "latitude": 33.455285957770300,
        "placeUrl": "http://place.map.kakao.com/246072041"
    },
    {
        "placeName": "걸리오름",
        "category": "여행 > 관광,명소 > 오름",
        "addressJibun": "제주특별자치도 서귀포시 성산읍 신풍리 1576",
        "longitude": 126.814944797741520,
        "latitude": 33.375944471104670,
        "placeUrl": "http://place.map.kakao.com/25174765"
    },
    {
        "placeName": "도래오름",
        "category": "여행 > 관광,명소 > 오름",
        "addressJibun": "제주특별자치도 제주시 애월읍 어음리 산 26-23",
        "longitude": 126.392858623689960,
        "latitude": 33.357974765167670,
        "placeUrl": "http://place.map.kakao.com/25210557"
    },
    {
        "placeName": "궁대악",
        "category": "여행 > 관광,명소 > 오름",
        "addressJibun": "제주특별자치도 서귀포시 성산읍 수산리 4711-8",
        "longitude": 126.823141735371720,
        "latitude": 33.435541545611400,
        "placeUrl": "http://place.map.kakao.com/8212572"
    },
    {
        "placeName": "모구리오름",
        "category": "여행 > 관광,명소 > 오름",
        "addressJibun": "제주특별자치도 서귀포시 성산읍 난산리 2960-1",
        "longitude": 126.828644879688740,
        "latitude": 33.409019275011700,
        "placeUrl": "http://place.map.kakao.com/7868485"
    },
    {
        "placeName": "족은바리메",
        "category": "여행 > 관광,명소 > 오름",
        "addressJibun": "제주특별자치도 제주시 애월읍 상가리 산 124",
        "longitude": 126.400260778543280,
        "latitude": 33.375728162739730,
        "placeUrl": "http://place.map.kakao.com/10798266"
    },
    {
        "placeName": "제석오름",
        "category": "여행 > 관광,명소 > 오름",
        "addressJibun": "제주특별자치도 서귀포시 표선면 하천리 429-1",
        "longitude": 126.835869686251800,
        "latitude": 33.347519579125590,
        "placeUrl": "http://place.map.kakao.com/8076561"
    },
    {
        "placeName": "알오름",
        "category": "여행 > 관광,명소 > 오름",
        "addressJibun": "제주특별자치도 제주시 애월읍 유수암리 산 114",
        "longitude": 126.403374923039000,
        "latitude": 33.413806030222400,
        "placeUrl": "http://place.map.kakao.com/7986111"
    },
    {
        "placeName": "궷물오름",
        "category": "여행 > 관광,명소 > 오름",
        "addressJibun": "제주특별자치도 제주시 애월읍 유수암리 산 136-6",
        "longitude": 126.405938668446720,
        "latitude": 33.396953023136690,
        "placeUrl": "http://place.map.kakao.com/8217224"
    },
    {
        "placeName": "다래오름북동쪽",
        "category": "여행 > 관광,명소 > 오름",
        "addressJibun": "제주특별자치도 제주시 애월읍 봉성리 산 1",
        "longitude": 126.409758290864000,
        "latitude": 33.362026923712900,
        "placeUrl": "http://place.map.kakao.com/17788460"
    },
    {
        "placeName": "모라리오름",
        "category": "여행 > 관광,명소 > 오름",
        "addressJibun": "제주특별자치도 서귀포시 색달동 산 16-1",
        "longitude": 126.413936648345820,
        "latitude": 33.301574829190340,
        "placeUrl": "http://place.map.kakao.com/7868596"
    },
    {
        "placeName": "족은노꼬메오름",
        "category": "여행 > 관광,명소 > 오름",
        "addressJibun": "제주특별자치도 제주시 애월읍 유수암리 산 138",
        "longitude": 126.417144269689360,
        "latitude": 33.392916498674815,
        "placeUrl": "http://place.map.kakao.com/8214370"
    },
    {
        "placeName": "은다리오름",
        "category": "여행 > 관광,명소 > 오름",
        "addressJibun": "제주특별자치도 제주시 구좌읍 종달리 산 15",
        "longitude": 126.855733383830000,
        "latitude": 33.469019052715800,
        "placeUrl": "http://place.map.kakao.com/8037603"
    },
    {
        "placeName": "통오름",
        "category": "여행 > 관광,명소 > 오름",
        "addressJibun": "제주특별자치도 서귀포시 성산읍 난산리 1976-1",
        "longitude": 126.856038510926620,
        "latitude": 33.393053074485955,
        "placeUrl": "http://place.map.kakao.com/8128672"
    },
    {
        "placeName": "녹하지악",
        "category": "여행 > 관광,명소 > 오름",
        "addressJibun": "제주특별자치도 서귀포시 중문동 산 5",
        "addressDoro": "제주특별자치도 서귀포시 산록남로 1391",
        "longitude": 126.430881189796040,
        "latitude": 33.304641539216250,
        "placeUrl": "http://place.map.kakao.com/8228030"
    },
    {
        "placeName": "소왕산",
        "category": "여행 > 관광,명소 > 오름",
        "addressJibun": "제주특별자치도 서귀포시 성산읍 시흥리 2160",
        "longitude": 126.876813515995080,
        "latitude": 33.464311053569500,
        "placeUrl": "http://place.map.kakao.com/7959730"
    },
    {
        "placeName": "삼형제오름(샛오름)",
        "category": "여행 > 관광,명소 > 오름",
        "addressJibun": "제주특별자치도 서귀포시 색달동 산 1-3",
        "longitude": 126.452491541005160,
        "latitude": 33.358169093333850,
        "placeUrl": "http://place.map.kakao.com/8389202"
    },
    {
        "placeName": "한라산 삼형제샛오름남쪽2",
        "category": "여행 > 관광,명소 > 오름",
        "addressJibun": "제주특별자치도 서귀포시 색달동 산 1",
        "longitude": 126.450591649736000,
        "latitude": 33.354464104973900,
        "placeUrl": "http://place.map.kakao.com/7926152"
    },
    {
        "placeName": "굿산망",
        "category": "여행 > 관광,명소 > 오름",
        "addressJibun": "제주특별자치도 서귀포시 하원동 1806",
        "longitude": 126.452141874438920,
        "latitude": 33.258144092773094,
        "placeUrl": "http://place.map.kakao.com/8192529"
    },
    {
        "placeName": "한라산 삼형제큰오름",
        "category": "여행 > 관광,명소 > 오름",
        "addressJibun": "제주특별자치도 서귀포시 색달동 산 1-3",
        "longitude": 126.460330785390840,
        "latitude": 33.357749002508974,
        "placeUrl": "http://place.map.kakao.com/7923716"
    },
    {
        "placeName": "도레오름",
        "category": "여행 > 관광,명소 > 오름",
        "addressJibun": "제주특별자치도 서귀포시 중문동 산 1-1",
        "longitude": 126.461341312015120,
        "latitude": 33.334972388289934,
        "placeUrl": "http://place.map.kakao.com/10263050"
    },
    {
        "placeName": "대수산봉",
        "category": "여행 > 관광,명소 > 오름",
        "addressJibun": "제주특별자치도 서귀포시 성산읍 고성리 2039-1",
        "longitude": 126.901649654742930,
        "latitude": 33.439675088526776,
        "placeUrl": "http://place.map.kakao.com/25206111"
    },
    {
        "placeName": "한라산 어스렁오름",
        "category": "여행 > 관광,명소 > 오름",
        "addressJibun": "제주특별자치도 제주시 애월읍 광령리 산 183",
        "longitude": 126.486902354089000,
        "latitude": 33.359268162410700,
        "placeUrl": "http://place.map.kakao.com/10573955"
    },
    {
        "placeName": "활오름",
        "category": "여행 > 관광,명소 > 오름",
        "addressJibun": "제주특별자치도 서귀포시 강정동 3728",
        "longitude": 126.480038660981880,
        "latitude": 33.263630338136680,
        "placeUrl": "http://place.map.kakao.com/8668530"
    },
    {
        "placeName": "상여오름",
        "category": "여행 > 관광,명소 > 오름",
        "addressJibun": "제주특별자치도 제주시 연동 1026-3",
        "longitude": 126.491699830545800,
        "latitude": 33.465716729100414,
        "placeUrl": "http://place.map.kakao.com/7925330"
    },
    {
        "placeName": "골머리오름",
        "category": "여행 > 관광,명소 > 오름",
        "addressJibun": "제주특별자치도 제주시 노형동 산 20",
        "longitude": 126.496888978767840,
        "latitude": 33.406299919644160,
        "placeUrl": "http://place.map.kakao.com/25179216"
    },
    {
        "placeName": "월산봉",
        "category": "여행 > 관광,명소 > 오름",
        "addressJibun": "제주특별자치도 서귀포시 강정동 1461",
        "addressDoro": "제주특별자치도 서귀포시 중산간서로 95",
        "longitude": 126.500243752013000,
        "latitude": 33.259625220221500,
        "placeUrl": "http://place.map.kakao.com/10677049"
    },
    {
        "placeName": "가삿기오름",
        "category": "여행 > 관광,명소 > 오름",
        "addressJibun": "제주특별자치도 제주시 오라삼동 2845",
        "longitude": 126.503878240194130,
        "latitude": 33.489100229785734,
        "placeUrl": "http://place.map.kakao.com/11043050"
    },
    {
        "placeName": "족은두레왓",
        "category": "여행 > 관광,명소 > 오름",
        "addressJibun": "제주특별자치도 제주시 해안동 산 220-12",
        "longitude": 126.506283778023980,
        "latitude": 33.386452733900214,
        "placeUrl": "http://place.map.kakao.com/10800349"
    },
    {
        "placeName": "오드싱오름",
        "category": "여행 > 관광,명소 > 오름",
        "addressJibun": "제주특별자치도 제주시 오등동 1554",
        "longitude": 126.520000078645000,
        "latitude": 33.469998521050700,
        "placeUrl": "http://place.map.kakao.com/8453959"
    },
    {
        "placeName": "윗세오름",
        "category": "여행 > 관광,명소 > 오름",
        "addressJibun": "제주특별자치도 서귀포시 서호동 산 1-1",
        "longitude": 126.521019855188640,
        "latitude": 33.360733441126110,
        "placeUrl": "http://place.map.kakao.com/25338262"
    },
    {
        "placeName": "한라산 웃세누운오름",
        "category": "여행 > 관광,명소 > 오름",
        "addressJibun": "제주특별자치도 서귀포시 영남동 산 1-1",
        "longitude": 126.513963709444000,
        "latitude": 33.360989125741100,
        "placeUrl": "http://place.map.kakao.com/12777859"
    },
    {
        "placeName": "시오름",
        "category": "여행 > 관광,명소 > 오름",
        "addressJibun": "제주특별자치도 서귀포시 서호동 산 1",
        "longitude": 126.516669010886300,
        "latitude": 33.305969563529880,
        "placeUrl": "http://place.map.kakao.com/25297520"
    },
    {
        "placeName": "개미목",
        "category": "여행 > 관광,명소 > 오름",
        "addressJibun": "제주특별자치도 제주시 오라이동 산 107-20",
        "longitude": 126.531536286074000,
        "latitude": 33.377997048883800,
        "placeUrl": "http://place.map.kakao.com/226444204"
    },
    {
        "placeName": "장구목오름",
        "category": "여행 > 관광,명소 > 오름",
        "addressJibun": "제주특별자치도 제주시 해안동",
        "longitude": 126.526613733542000,
        "latitude": 33.374154644482000,
        "placeUrl": "http://place.map.kakao.com/25350247"
    },
    {
        "placeName": "웃방애오름",
        "category": "여행 > 관광,명소 > 오름",
        "addressJibun": "제주특별자치도 서귀포시 동홍동 산 1-1",
        "longitude": 126.529931071008800,
        "latitude": 33.356960889186446,
        "placeUrl": "http://place.map.kakao.com/11181281"
    },
    {
        "placeName": "망동산",
        "category": "여행 > 관광,명소 > 오름",
        "addressJibun": "제주특별자치도 제주시 우도면 연평리 산 6",
        "longitude": 126.962403952126000,
        "latitude": 33.498020843193700,
        "placeUrl": "http://place.map.kakao.com/7870134"
    },
    {
        "placeName": "들위오름",
        "category": "여행 > 관광,명소 > 오름",
        "addressJibun": "제주특별자치도 제주시 오등동 산 154-5",
        "longitude": 126.540244706503760,
        "latitude": 33.427280796794820,
        "placeUrl": "http://place.map.kakao.com/8341417"
    },
    {
        "placeName": "왕관릉",
        "category": "여행 > 관광,명소 > 오름",
        "addressJibun": "제주특별자치도 제주시 오등동 산 182",
        "longitude": 126.533036276775000,
        "latitude": 33.371200047682300,
        "placeUrl": "http://place.map.kakao.com/234968820"
    },
    {
        "placeName": "알오름",
        "category": "여행 > 관광,명소 > 오름",
        "addressJibun": "제주특별자치도 제주시 화북일동 4504",
        "longitude": 126.549506095436360,
        "latitude": 33.519128039835685,
        "placeUrl": "http://place.map.kakao.com/8402972"
    },
    {
        "placeName": "사라오름",
        "category": "여행 > 관광,명소 > 오름",
        "addressJibun": "제주특별자치도 서귀포시 남원읍 신례리 산 2-1",
        "longitude": 126.570875559173520,
        "latitude": 33.371936188379806,
        "placeUrl": "http://place.map.kakao.com/25262407"
    },
    {
        "placeName": "어후오름",
        "category": "여행 > 관광,명소 > 오름",
        "addressJibun": "제주특별자치도 제주시 조천읍 교래리 산 137-2",
        "longitude": 126.593603282513310,
        "latitude": 33.391238660384850,
        "placeUrl": "http://place.map.kakao.com/7992566"
    },
    {
        "placeName": "수월봉",
        "category": "여행 > 관광,명소 > 오름",
        "addressJibun": "제주특별자치도 제주시 한경면 고산리 3760",
        "longitude": 126.163108586410520,
        "latitude": 33.294769744638910,
        "placeUrl": "http://place.map.kakao.com/25294439"
    },
    {
        "placeName": "논오름",
        "category": "여행 > 관광,명소 > 오름",
        "addressJibun": "제주특별자치도 제주시 삼양동 558-1",
        "longitude": 126.598795207548000,
        "latitude": 33.517468157603100,
        "placeUrl": "http://place.map.kakao.com/8191971"
    },
    {
        "placeName": "물장오리(물장올)",
        "category": "여행 > 관광,명소 > 오름",
        "addressJibun": "제주특별자치도 제주시 봉개동 산 78-38",
        "longitude": 126.606794544021280,
        "latitude": 33.406255106795015,
        "placeUrl": "http://place.map.kakao.com/10424248"
    },
    {
        "placeName": "보리오름",
        "category": "여행 > 관광,명소 > 오름",
        "addressJibun": "제주특별자치도 서귀포시 남원읍 신례리 산 2-1",
        "longitude": 126.601119183246840,
        "latitude": 33.347030725769480,
        "placeUrl": "http://place.map.kakao.com/25253060"
    },
    {
        "placeName": "월라산",
        "category": "여행 > 관광,명소 > 오름",
        "addressJibun": "제주특별자치도 서귀포시 신효동 산 1",
        "addressDoro": "제주특별자치도 서귀포시 월라봉로 76-40",
        "longitude": 126.605673192431000,
        "latitude": 33.271368391077200,
        "placeUrl": "http://place.map.kakao.com/8471394"
    },
    {
        "placeName": "설오름",
        "category": "여행 > 관광,명소 > 오름",
        "addressJibun": "제주특별자치도 서귀포시 신효동 1028",
        "longitude": 126.604935270813000,
        "latitude": 33.255991450429000,
        "placeUrl": "http://place.map.kakao.com/7939481"
    },
    {
        "placeName": "당산봉",
        "category": "여행 > 관광,명소 > 오름",
        "addressJibun": "제주특별자치도 제주시 한경면 용수리 산 28",
        "longitude": 126.172978073335680,
        "latitude": 33.307743960969440,
        "placeUrl": "http://place.map.kakao.com/7814429"
    },
    {
        "placeName": "고냉이술",
        "category": "여행 > 관광,명소 > 오름",
        "addressJibun": "제주특별자치도 제주시 봉개동 165",
        "longitude": 126.616323157369000,
        "latitude": 33.477388203617900,
        "placeUrl": "http://place.map.kakao.com/8654782"
    },
    {
        "placeName": "족은칡오름",
        "category": "여행 > 관광,명소 > 오름",
        "addressJibun": "제주특별자치도 제주시 봉개동 466-2",
        "longitude": 126.613922792861000,
        "latitude": 33.474254001725900,
        "placeUrl": "http://place.map.kakao.com/8064174"
    },
    {
        "placeName": "개월이오름",
        "category": "여행 > 관광,명소 > 오름",
        "addressJibun": "제주특별자치도 제주시 봉개동 산 78-1",
        "longitude": 126.612700404239420,
        "latitude": 33.426639213010310,
        "placeUrl": "http://place.map.kakao.com/7937029"
    },
    {
        "placeName": "족은개월이",
        "category": "여행 > 관광,명소 > 오름",
        "addressJibun": "제주특별자치도 제주시 봉개동 산 78-1",
        "longitude": 126.616769551505000,
        "latitude": 33.428994226555700,
        "placeUrl": "http://place.map.kakao.com/241130911"
    },
    {
        "placeName": "족은개오리",
        "category": "여행 > 관광,명소 > 오름",
        "addressJibun": "제주특별자치도 제주시 봉개동 산 78-1",
        "addressDoro": "제주특별자치도 제주시 명림로 584",
        "longitude": 126.616802192302000,
        "latitude": 33.433066883836600,
        "placeUrl": "http://place.map.kakao.com/10789590"
    },
    {
        "placeName": "성진이오름",
        "category": "여행 > 관광,명소 > 오름",
        "addressJibun": "제주특별자치도 제주시 봉개동 산 78-2",
        "longitude": 126.610844907443860,
        "latitude": 33.419805533053020,
        "placeUrl": "http://place.map.kakao.com/8382357"
    },
    {
        "placeName": "논고악",
        "category": "여행 > 관광,명소 > 오름",
        "addressJibun": "제주특별자치도 서귀포시 남원읍 신례리 산 2-1",
        "longitude": 126.610600474330840,
        "latitude": 33.359624856690360,
        "placeUrl": "http://place.map.kakao.com/8251573"
    },
    {
        "placeName": "절물오름",
        "category": "여행 > 관광,명소 > 오름",
        "addressJibun": "제주특별자치도 제주시 봉개동 산 78-1",
        "longitude": 126.626707865040000,
        "latitude": 33.433880589063100,
        "placeUrl": "http://place.map.kakao.com/241119078"
    },
    {
        "placeName": "흑악",
        "category": "여행 > 관광,명소 > 오름",
        "addressJibun": "제주특별자치도 서귀포시 남원읍 신례리 산 2-29",
        "longitude": 126.619025465688620,
        "latitude": 33.348921742851710,
        "placeUrl": "http://place.map.kakao.com/8701378"
    },
    {
        "placeName": "이승이오름",
        "category": "여행 > 관광,명소 > 오름",
        "addressJibun": "제주특별자치도 서귀포시 남원읍 신례리 산 2-4",
        "longitude": 126.622238955779180,
        "latitude": 33.340149788503524,
        "placeUrl": "http://place.map.kakao.com/25342411"
    },
    {
        "placeName": "민오름",
        "category": "여행 > 관광,명소 > 오름",
        "addressJibun": "제주특별자치도 제주시 봉개동 산 64",
        "longitude": 126.637080520913220,
        "latitude": 33.437255433771400,
        "placeUrl": "http://place.map.kakao.com/7879348"
    },
    {
        "placeName": "사려니남서쪽",
        "category": "여행 > 관광,명소 > 오름",
        "addressJibun": "제주특별자치도 서귀포시 남원읍 위미리 산 1-1",
        "longitude": 126.639480940659720,
        "latitude": 33.340616681509970,
        "placeUrl": "http://place.map.kakao.com/7916415"
    },
    {
        "placeName": "사려니",
        "category": "여행 > 관광,명소 > 오름",
        "addressJibun": "제주특별자치도 서귀포시 남원읍 한남리 산 2-1",
        "longitude": 126.645830130489950,
        "latitude": 33.340175122831134,
        "placeUrl": "http://place.map.kakao.com/7916414"
    },
    {
        "placeName": "바농오름",
        "category": "여행 > 관광,명소 > 오름",
        "addressJibun": "제주특별자치도 제주시 조천읍 교래리 산 108",
        "longitude": 126.653802700775440,
        "latitude": 33.453771972622320,
        "placeUrl": "http://place.map.kakao.com/25240627"
    },
    {
        "placeName": "마흐니",
        "category": "여행 > 관광,명소 > 오름",
        "addressJibun": "제주특별자치도 서귀포시 남원읍 수망리 산 203",
        "longitude": 126.658602747208080,
        "latitude": 33.379663907972300,
        "placeUrl": "http://place.map.kakao.com/7864566"
    },
    {
        "placeName": "거인악",
        "category": "여행 > 관광,명소 > 오름",
        "addressJibun": "제주특별자치도 서귀포시 남원읍 한남리 산 2-1",
        "longitude": 126.658019569790880,
        "latitude": 33.353477528763370,
        "placeUrl": "http://place.map.kakao.com/10812380"
    },
    {
        "placeName": "마체악",
        "category": "여행 > 관광,명소 > 오름",
        "addressJibun": "제주특별자치도 서귀포시 남원읍 한남리 산 2-1",
        "longitude": 126.659666795664880,
        "latitude": 33.340436509498390,
        "placeUrl": "http://place.map.kakao.com/8360323"
    },
    {
        "placeName": "넙거리",
        "category": "여행 > 관광,명소 > 오름",
        "addressJibun": "제주특별자치도 서귀포시 남원읍 한남리 산 2-1",
        "longitude": 126.652458319262640,
        "latitude": 33.334922066504780,
        "placeUrl": "http://place.map.kakao.com/8226028"
    },
    {
        "placeName": "돔배오름",
        "category": "여행 > 관광,명소 > 오름",
        "addressJibun": "제주특별자치도 제주시 조천읍 교래리 산 64",
        "longitude": 126.669224929859840,
        "latitude": 33.427858609710164,
        "placeUrl": "http://place.map.kakao.com/7834108"
    },
    {
        "placeName": "정월오름",
        "category": "여행 > 관광,명소 > 오름",
        "addressJibun": "제주특별자치도 제주시 한림읍 금능리 565-22",
        "longitude": 126.241560877502480,
        "latitude": 33.363655865024580,
        "placeUrl": "http://place.map.kakao.com/25359280"
    },
    {
        "placeName": "송아오름",
        "category": "여행 > 관광,명소 > 오름",
        "addressJibun": "제주특별자치도 제주시 한경면 조수리 134",
        "longitude": 126.238568601668000,
        "latitude": 33.335637628566200,
        "placeUrl": "http://place.map.kakao.com/7957264"
    },
    {
        "placeName": "새신오름",
        "category": "여행 > 관광,명소 > 오름",
        "addressJibun": "제주특별자치도 제주시 한경면 청수리 3361",
        "longitude": 126.237674910091680,
        "latitude": 33.297769488837204,
        "placeUrl": "http://place.map.kakao.com/11117069"
    },
    {
        "placeName": "가시오름",
        "category": "여행 > 관광,명소 > 오름",
        "addressJibun": "제주특별자치도 서귀포시 대정읍 동일리 1706",
        "longitude": 126.243150166193470,
        "latitude": 33.247047047591620,
        "placeUrl": "http://place.map.kakao.com/11269510"
    },
    {
        "placeName": "꾀꼬리오름",
        "category": "여행 > 관광,명소 > 오름",
        "addressJibun": "제주특별자치도 제주시 조천읍 대흘리 산 33",
        "longitude": 126.679100196569370,
        "latitude": 33.461152944304480,
        "placeUrl": "http://place.map.kakao.com/8241683"
    },
    {
        "placeName": "민오름",
        "category": "여행 > 관광,명소 > 오름",
        "addressJibun": "제주특별자치도 서귀포시 남원읍 수망리 산 158-1",
        "longitude": 126.677030554439680,
        "latitude": 33.350186123837766,
        "placeUrl": "http://place.map.kakao.com/10412117"
    },
    {
        "placeName": "자배봉",
        "category": "여행 > 관광,명소 > 오름",
        "addressJibun": "제주특별자치도 서귀포시 남원읍 위미리 산 132-2",
        "longitude": 126.676939222076340,
        "latitude": 33.301002293050050,
        "placeUrl": "http://place.map.kakao.com/11158780"
    },
    {
        "placeName": "저지오름",
        "category": "여행 > 관광,명소 > 오름",
        "addressJibun": "제주특별자치도 제주시 한경면 저지리 산 51",
        "longitude": 126.250860111101000,
        "latitude": 33.332686612377200,
        "placeUrl": "http://place.map.kakao.com/25354927"
    },
    {
        "placeName": "저지오름",
        "category": "여행 > 관광,명소 > 오름",
        "addressJibun": "제주특별자치도 제주시 한경면 저지리 51",
        "longitude": 126.250983654578870,
        "latitude": 33.334064097449090,
        "placeUrl": "http://place.map.kakao.com/85419607"
    },
    {
        "placeName": "마오름",
        "category": "여행 > 관광,명소 > 오름",
        "addressJibun": "제주특별자치도 제주시 한경면 저지리 산 56",
        "longitude": 126.243656134789030,
        "latitude": 33.338055240668695,
        "placeUrl": "http://place.map.kakao.com/10356367"
    },
    {
        "placeName": "이계오름",
        "category": "여행 > 관광,명소 > 오름",
        "addressJibun": "제주특별자치도 제주시 한경면 청수리 1854",
        "longitude": 126.245108524038360,
        "latitude": 33.330938753859925,
        "placeUrl": "http://place.map.kakao.com/25342606"
    },
    {
        "placeName": "족은방애오름",
        "category": "여행 > 관광,명소 > 오름",
        "addressJibun": "제주특별자치도 제주시 조천읍 교래리 산 44",
        "longitude": 126.684058187710220,
        "latitude": 33.439150256868670,
        "placeUrl": "http://place.map.kakao.com/8065788"
    },
    {
        "placeName": "구두리오름",
        "category": "여행 > 관광,명소 > 오름",
        "addressJibun": "제주특별자치도 서귀포시 표선면 가시리 산 158-2",
        "longitude": 126.688041600195670,
        "latitude": 33.409960796019845,
        "placeUrl": "http://place.map.kakao.com/8191728"
    },
    {
        "placeName": "쳇망오름",
        "category": "여행 > 관광,명소 > 오름",
        "addressJibun": "제주특별자치도 서귀포시 표선면 가시리 산 158-2",
        "longitude": 126.691945470448450,
        "latitude": 33.395538424597800,
        "placeUrl": "http://place.map.kakao.com/11234528"
    },
    {
        "placeName": "물영아리",
        "category": "여행 > 관광,명소 > 오름",
        "addressJibun": "제주특별자치도 서귀포시 남원읍 수망리 산 188",
        "longitude": 126.692063735971900,
        "latitude": 33.368394654095674,
        "placeUrl": "http://place.map.kakao.com/7873185"
    },
    {
        "placeName": "망오름",
        "category": "여행 > 관광,명소 > 오름",
        "addressJibun": "제주특별자치도 제주시 한림읍 상명리 산 5",
        "longitude": 126.260855943574200,
        "latitude": 33.365671899079220,
        "placeUrl": "http://place.map.kakao.com/15150233"
    },
    {
        "placeName": "모슬봉정상",
        "category": "여행 > 관광,명소 > 오름",
        "addressJibun": "제주특별자치도 서귀포시 대정읍 보성리 2136-1",
        "longitude": 126.260833069118000,
        "latitude": 33.239322003234600,
        "placeUrl": "http://place.map.kakao.com/1078741731"
    },
    {
        "placeName": "산굼부리",
        "category": "여행 > 관광,명소 > 오름",
        "addressJibun": "제주특별자치도 제주시 조천읍 교래리 산 37",
        "longitude": 126.694919967253000,
        "latitude": 33.429575317414800,
        "placeUrl": "http://place.map.kakao.com/241112224"
    },
    {
        "placeName": "넉시악",
        "category": "여행 > 관광,명소 > 오름",
        "addressJibun": "제주특별자치도 서귀포시 남원읍 의귀리 531",
        "longitude": 126.714783460322000,
        "latitude": 33.306188210727900,
        "placeUrl": "http://place.map.kakao.com/8224254"
    },
    {
        "placeName": "백리악",
        "category": "여행 > 관광,명소 > 오름",
        "addressJibun": "제주특별자치도 서귀포시 남원읍 의귀리 1401-23",
        "longitude": 126.714683040237000,
        "latitude": 33.306030195269000,
        "placeUrl": "http://place.map.kakao.com/228825285"
    },
    {
        "placeName": "금산",
        "category": "여행 > 관광,명소 > 오름",
        "addressJibun": "제주특별자치도 서귀포시 대정읍 상모리 977",
        "longitude": 126.285397397335070,
        "latitude": 33.235138708576720,
        "placeUrl": "http://place.map.kakao.com/8222952"
    },
    {
        "placeName": "섯알오름",
        "category": "여행 > 관광,명소 > 오름",
        "addressJibun": "제주특별자치도 서귀포시 대정읍 상모리 1593-2",
        "longitude": 126.281216817877860,
        "latitude": 33.206491906316080,
        "placeUrl": "http://place.map.kakao.com/25284265"
    },
    {
        "placeName": "웃밤",
        "category": "여행 > 관광,명소 > 오름",
        "addressJibun": "제주특별자치도 제주시 조천읍 선흘리 산 84",
        "longitude": 126.715417053799000,
        "latitude": 33.477346988294755,
        "placeUrl": "http://place.map.kakao.com/8035989"
    },
    {
        "placeName": "선소오름",
        "category": "여행 > 관광,명소 > 오름",
        "addressJibun": "제주특별자치도 제주시 한림읍 금악리 2785-1",
        "longitude": 126.290914858020000,
        "latitude": 33.372894999927400,
        "placeUrl": "http://place.map.kakao.com/25283148"
    },
    {
        "placeName": "문도지오름",
        "category": "여행 > 관광,명소 > 오름",
        "addressJibun": "제주특별자치도 제주시 한림읍 금악리 3445",
        "longitude": 126.294613691622910,
        "latitude": 33.326250207623005,
        "placeUrl": "http://place.map.kakao.com/7875147"
    },
    {
        "placeName": "동알오름",
        "category": "여행 > 관광,명소 > 오름",
        "addressJibun": "제주특별자치도 서귀포시 대정읍 상모리 152",
        "longitude": 126.288130338317160,
        "latitude": 33.207417036184580,
        "placeUrl": "http://place.map.kakao.com/7849255"
    },
    {
        "placeName": "천아오름",
        "category": "여행 > 관광,명소 > 오름",
        "addressJibun": "제주특별자치도 제주시 한림읍 상대리 1689",
        "longitude": 126.298888499930040,
        "latitude": 33.404578118602686,
        "placeUrl": "http://place.map.kakao.com/8099434"
    },
    {
        "placeName": "금오름",
        "category": "여행 > 관광,명소 > 오름",
        "addressJibun": "제주특별자치도 제주시 한림읍 금악리 산 1-1",
        "longitude": 126.305838863043080,
        "latitude": 33.354572330015976,
        "placeUrl": "http://place.map.kakao.com/25189061"
    },
    {
        "placeName": "남송이오름",
        "category": "여행 > 관광,명소 > 오름",
        "addressJibun": "제주특별자치도 서귀포시 안덕면 서광리 산 31",
        "longitude": 126.306819038480880,
        "latitude": 33.312214217755084,
        "placeUrl": "http://place.map.kakao.com/8231118"
    },
    {
        "placeName": "묘산봉",
        "category": "여행 > 관광,명소 > 오름",
        "addressJibun": "제주특별자치도 제주시 구좌읍 김녕리 2723",
        "longitude": 126.744678880469000,
        "latitude": 33.543665649417700,
        "placeUrl": "http://place.map.kakao.com/10328462"
    },
    {
        "placeName": "식은이오름",
        "category": "여행 > 관광,명소 > 오름",
        "addressJibun": "제주특별자치도 제주시 구좌읍 덕천리 1450",
        "longitude": 126.746110686146000,
        "latitude": 33.473711672404000,
        "placeUrl": "http://place.map.kakao.com/7912287"
    },
    {
        "placeName": "거친오름",
        "category": "여행 > 관광,명소 > 오름",
        "addressJibun": "제주특별자치도 제주시 구좌읍 송당리 산 84-2",
        "longitude": 126.740542120831140,
        "latitude": 33.459644109907025,
        "placeUrl": "http://place.map.kakao.com/25173826"
    },
    {
        "placeName": "감은이오름",
        "category": "여행 > 관광,명소 > 오름",
        "addressJibun": "제주특별자치도 제주시 구좌읍 송당리 산 297",
        "longitude": 126.741177737467000,
        "latitude": 33.423460251307600,
        "placeUrl": "http://place.map.kakao.com/8676274"
    },
    {
        "placeName": "넙게오름",
        "category": "여행 > 관광,명소 > 오름",
        "addressJibun": "제주특별자치도 서귀포시 안덕면 서광리 943",
        "longitude": 126.317363136920000,
        "latitude": 33.287924675640400,
        "placeUrl": "http://place.map.kakao.com/8244203"
    },
    {
        "placeName": "광해악",
        "category": "여행 > 관광,명소 > 오름",
        "addressJibun": "제주특별자치도 서귀포시 안덕면 서광리 929",
        "longitude": 126.317544183347000,
        "latitude": 33.287697562606800,
        "placeUrl": "http://place.map.kakao.com/237377496"
    },
    {
        "placeName": "주체오름",
        "category": "여행 > 관광,명소 > 오름",
        "addressJibun": "제주특별자치도 제주시 구좌읍 덕천리 864",
        "longitude": 126.748128134097460,
        "latitude": 33.492211281607040,
        "placeUrl": "http://place.map.kakao.com/11153172"
    },
    {
        "placeName": "종제기오름",
        "category": "여행 > 관광,명소 > 오름",
        "addressJibun": "제주특별자치도 제주시 구좌읍 덕천리 1307",
        "longitude": 126.755835670264100,
        "latitude": 33.479285996093616,
        "placeUrl": "http://place.map.kakao.com/8520293"
    },
    {
        "placeName": "체오름",
        "category": "여행 > 관광,명소 > 오름",
        "addressJibun": "제주특별자치도 제주시 구좌읍 덕천리 산 2",
        "longitude": 126.749442050361840,
        "latitude": 33.465660803412370,
        "placeUrl": "http://place.map.kakao.com/8094829"
    },
    {
        "placeName": "안돌오름",
        "category": "여행 > 관광,명소 > 오름",
        "addressJibun": "제주특별자치도 제주시 구좌읍 송당리 산 66-2",
        "longitude": 126.755868935309600,
        "latitude": 33.457830549274160,
        "placeUrl": "http://place.map.kakao.com/8428406"
    },
    {
        "placeName": "병곳오름",
        "category": "여행 > 관광,명소 > 오름",
        "addressJibun": "제주특별자치도 서귀포시 표선면 가시리 산 8",
        "longitude": 126.748375508023510,
        "latitude": 33.367042000194310,
        "placeUrl": "http://place.map.kakao.com/11302272"
    },
    {
        "placeName": "소소름",
        "category": "여행 > 관광,명소 > 오름",
        "addressJibun": "제주특별자치도 서귀포시 표선면 토산리 2003",
        "longitude": 126.755211065367850,
        "latitude": 33.344208560767220,
        "placeUrl": "http://place.map.kakao.com/10548055"
    },
    {
        "placeName": "과오름",
        "category": "여행 > 관광,명소 > 오름",
        "addressJibun": "제주특별자치도 제주시 애월읍 곽지리 산 4",
        "longitude": 126.323172414871960,
        "latitude": 33.446196937345020,
        "placeUrl": "http://place.map.kakao.com/25180821"
    },
    {
        "placeName": "민오름",
        "category": "여행 > 관광,명소 > 오름",
        "addressJibun": "제주특별자치도 제주시 구좌읍 송당리 산 156",
        "longitude": 126.762802968524100,
        "latitude": 33.436325305331586,
        "placeUrl": "http://place.map.kakao.com/8316763"
    },
    {
        "placeName": "칡오름",
        "category": "여행 > 관광,명소 > 오름",
        "addressJibun": "제주특별자치도 제주시 구좌읍 송당리 산 155",
        "longitude": 126.762036177271900,
        "latitude": 33.444221940377260,
        "placeUrl": "http://place.map.kakao.com/8586993"
    },
    {
        "placeName": "비치미오름",
        "category": "여행 > 관광,명소 > 오름",
        "addressJibun": "제주특별자치도 제주시 구좌읍 송당리 산 255-1",
        "longitude": 126.763238644257380,
        "latitude": 33.427557968118080,
        "placeUrl": "http://place.map.kakao.com/8379747"
    },
    {
        "placeName": "밝은오름",
        "category": "여행 > 관광,명소 > 오름",
        "addressJibun": "제주특별자치도 제주시 한림읍 금악리",
        "longitude": 126.335941146288000,
        "latitude": 33.351137773694000,
        "placeUrl": "http://place.map.kakao.com/25243139"
    },
    {
        "placeName": "당오름",
        "category": "여행 > 관광,명소 > 오름",
        "addressJibun": "제주특별자치도 서귀포시 안덕면 동광리 산 68-1",
        "longitude": 126.335655857854600,
        "latitude": 33.334099554764630,
        "placeUrl": "http://place.map.kakao.com/7814463"
    },
    {
        "placeName": "서수모루",
        "category": "여행 > 관광,명소 > 오름",
        "addressJibun": "제주특별자치도 제주시 구좌읍 송당리 산 67-2",
        "longitude": 126.768642323717000,
        "latitude": 33.464249241046700,
        "placeUrl": "http://place.map.kakao.com/7937664"
    },
    {
        "placeName": "족은돌이미",
        "category": "여행 > 관광,명소 > 오름",
        "addressJibun": "제주특별자치도 제주시 구좌읍 송당리 2451",
        "longitude": 126.773210254280000,
        "latitude": 33.440119816540700,
        "placeUrl": "http://place.map.kakao.com/8060120"
    },
    {
        "placeName": "밝은오름",
        "category": "여행 > 관광,명소 > 오름",
        "addressJibun": "제주특별자치도 서귀포시 안덕면 동광리 736",
        "longitude": 126.341472096087240,
        "latitude": 33.301249817173250,
        "placeUrl": "http://place.map.kakao.com/7888984"
    },
    {
        "placeName": "괭이모루",
        "category": "여행 > 관광,명소 > 오름",
        "addressJibun": "제주특별자치도 제주시 구좌읍 송당리 산 198",
        "longitude": 126.780334275423000,
        "latitude": 33.462135503639200,
        "placeUrl": "http://place.map.kakao.com/8194279"
    },
    {
        "placeName": "가세오름",
        "category": "여행 > 관광,명소 > 오름",
        "addressJibun": "제주특별자치도 서귀포시 표선면 토산리 산 5",
        "longitude": 126.781319130472680,
        "latitude": 33.330141427864650,
        "placeUrl": "http://place.map.kakao.com/10118902"
    },
    {
        "placeName": "족은대비악",
        "category": "여행 > 관광,명소 > 오름",
        "addressJibun": "제주특별자치도 서귀포시 안덕면 광평리 산 59",
        "longitude": 126.369049930068480,
        "latitude": 33.330452669973944,
        "placeUrl": "http://place.map.kakao.com/11153555"
    },
    {
        "placeName": "폭낭오름",
        "category": "여행 > 관광,명소 > 오름",
        "addressJibun": "제주특별자치도 제주시 애월읍 봉성리 산 43",
        "longitude": 126.381947666289720,
        "latitude": 33.352121811809620,
        "placeUrl": "http://place.map.kakao.com/8576933"
    },
    {
        "placeName": "다랑쉬오름",
        "category": "여행 > 관광,명소 > 오름",
        "addressJibun": "제주특별자치도 제주시 구좌읍 세화리 산 6",
        "longitude": 126.821535924615650,
        "latitude": 33.477685859967720,
        "placeUrl": "http://place.map.kakao.com/25200772"
    },
    {
        "placeName": "손자봉",
        "category": "여행 > 관광,명소 > 오름",
        "addressJibun": "제주특별자치도 제주시 구좌읍 종달리 산 52",
        "longitude": 126.819832267508000,
        "latitude": 33.456623648692900,
        "placeUrl": "http://place.map.kakao.com/7959260"
    },
    {
        "placeName": "남산봉",
        "category": "여행 > 관광,명소 > 오름",
        "addressJibun": "제주특별자치도 서귀포시 성산읍 신풍리 1657-1",
        "longitude": 126.812530194197700,
        "latitude": 33.383412573081970,
        "placeUrl": "http://place.map.kakao.com/11300413"
    },
    {
        "placeName": "본지오름",
        "category": "여행 > 관광,명소 > 오름",
        "addressJibun": "제주특별자치도 서귀포시 성산읍 삼달리 2104-1",
        "longitude": 126.822260763844160,
        "latitude": 33.387102790858110,
        "placeUrl": "http://place.map.kakao.com/25254223"
    },
    {
        "placeName": "매오름",
        "category": "여행 > 관광,명소 > 오름",
        "addressJibun": "제주특별자치도 서귀포시 표선면 세화리 산 7",
        "longitude": 126.813619296552450,
        "latitude": 33.317680394225360,
        "placeUrl": "http://place.map.kakao.com/25229887"
    },
    {
        "placeName": "도청오름",
        "category": "여행 > 관광,명소 > 오름",
        "addressJibun": "제주특별자치도 서귀포시 표선면 표선리 산 4-1",
        "longitude": 126.815255197575770,
        "latitude": 33.314980654601776,
        "placeUrl": "http://place.map.kakao.com/10307727"
    },
    {
        "placeName": "검은데기오름",
        "category": "여행 > 관광,명소 > 오름",
        "addressJibun": "제주특별자치도 제주시 애월읍 소길리 산 118",
        "longitude": 126.386044783975170,
        "latitude": 33.418680254980460,
        "placeUrl": "http://place.map.kakao.com/11039987"
    },
    {
        "placeName": "큰바리메",
        "category": "여행 > 관광,명소 > 오름",
        "addressJibun": "제주특별자치도 제주시 애월읍 어음리 산 21",
        "longitude": 126.388019764105480,
        "latitude": 33.377130814805990,
        "placeUrl": "http://place.map.kakao.com/7888119"
    },
    {
        "placeName": "하늬보기",
        "category": "여행 > 관광,명소 > 오름",
        "addressJibun": "제주특별자치도 서귀포시 안덕면 상천리 산 89-1",
        "longitude": 126.391539279183520,
        "latitude": 33.326927778794776,
        "placeUrl": "http://place.map.kakao.com/8144640"
    },
    {
        "placeName": "마보기",
        "category": "여행 > 관광,명소 > 오름",
        "addressJibun": "제주특별자치도 서귀포시 안덕면 상천리 산 83",
        "longitude": 126.392996996374780,
        "latitude": 33.320380206767520,
        "placeUrl": "http://place.map.kakao.com/7865729"
    },
    {
        "placeName": "아끈다랑쉬오름",
        "category": "여행 > 관광,명소 > 오름",
        "addressJibun": "제주특별자치도 제주시 구좌읍 세화리 2593-2",
        "longitude": 126.830646982354840,
        "latitude": 33.474139101600350,
        "placeUrl": "http://place.map.kakao.com/25303334"
    },
    {
        "placeName": "용눈이오름",
        "category": "여행 > 관광,명소 > 오름",
        "addressJibun": "제주특별자치도 제주시 구좌읍 종달리 산 28",
        "longitude": 126.832682981895060,
        "latitude": 33.459880235938720,
        "placeUrl": "http://place.map.kakao.com/10626439"
    },
    {
        "placeName": "돌미오름",
        "category": "여행 > 관광,명소 > 오름",
        "addressJibun": "제주특별자치도 서귀포시 성산읍 수산리 4535",
        "longitude": 126.829149359422000,
        "latitude": 33.437966287212400,
        "placeUrl": "http://place.map.kakao.com/25034428"
    },
    {
        "placeName": "뒷굽으니오름",
        "category": "여행 > 관광,명소 > 오름",
        "addressJibun": "제주특별자치도 서귀포시 성산읍 수산리 4504",
        "longitude": 126.826760663808260,
        "latitude": 33.429427408552030,
        "placeUrl": "http://place.map.kakao.com/25221315"
    },
    {
        "placeName": "모구리알오름",
        "category": "여행 > 관광,명소 > 오름",
        "addressJibun": "제주특별자치도 서귀포시 성산읍 난산리 2960-1",
        "longitude": 126.827972113186960,
        "latitude": 33.407277323200980,
        "placeUrl": "http://place.map.kakao.com/7866881"
    },
    {
        "placeName": "빈네오름",
        "category": "여행 > 관광,명소 > 오름",
        "addressJibun": "제주특별자치도 제주시 애월읍 봉성리 52-16",
        "longitude": 126.394161506472600,
        "latitude": 33.349030889990914,
        "placeUrl": "http://place.map.kakao.com/7920053"
    },
    {
        "placeName": "우보악",
        "category": "여행 > 관광,명소 > 오름",
        "addressJibun": "제주특별자치도 서귀포시 색달동 912-1",
        "longitude": 126.401802352789000,
        "latitude": 33.275362045860700,
        "placeUrl": "http://place.map.kakao.com/11187864"
    },
    {
        "placeName": "나시리오름",
        "category": "여행 > 관광,명소 > 오름",
        "addressJibun": "제주특별자치도 서귀포시 성산읍 난산리 2817",
        "longitude": 126.833569411448370,
        "latitude": 33.414211170791624,
        "placeUrl": "http://place.map.kakao.com/25192315"
    },
    {
        "placeName": "바굼지오름",
        "category": "여행 > 관광,명소 > 오름",
        "addressJibun": "제주특별자치도 제주시 애월읍 상귀리 332",
        "longitude": 126.412841255209000,
        "latitude": 33.478572084669700,
        "placeUrl": "http://place.map.kakao.com/228305623"
    },
    {
        "placeName": "안천이오름",
        "category": "여행 > 관광,명소 > 오름",
        "addressJibun": "제주특별자치도 제주시 애월읍 상가리 산 124",
        "longitude": 126.410356120933680,
        "latitude": 33.372155687343770,
        "placeUrl": "http://place.map.kakao.com/8428549"
    },
    {
        "placeName": "검은들먹오름",
        "category": "여행 > 관광,명소 > 오름",
        "addressJibun": "제주특별자치도 제주시 애월읍 봉성리 산 1",
        "longitude": 126.406297019496920,
        "latitude": 33.362574825313885,
        "placeUrl": "http://place.map.kakao.com/8679274"
    },
    {
        "placeName": "어오름",
        "category": "여행 > 관광,명소 > 오름",
        "addressJibun": "제주특별자치도 서귀포시 안덕면 상천리 산 25",
        "longitude": 126.405446796640800,
        "latitude": 33.324213654192280,
        "placeUrl": "http://place.map.kakao.com/11102796"
    },
    {
        "placeName": "베릿내오름",
        "category": "여행 > 관광,명소 > 오름",
        "addressJibun": "제주특별자치도 서귀포시 중문동 3712",
        "longitude": 126.421505455742000,
        "latitude": 33.247331941238200,
        "placeUrl": "http://place.map.kakao.com/17809089"
    },
    {
        "placeName": "산세미오름",
        "category": "여행 > 관광,명소 > 오름",
        "addressJibun": "제주특별자치도 제주시 애월읍 고성리 산 127",
        "longitude": 126.434105856480540,
        "latitude": 33.408697292736930,
        "placeUrl": "http://place.map.kakao.com/10440260"
    },
    {
        "placeName": "삼형제오름(말젯오름)",
        "category": "여행 > 관광,명소 > 오름",
        "addressJibun": "제주특별자치도 서귀포시 색달동 산 1-3",
        "longitude": 126.444528150426460,
        "latitude": 33.358163475931030,
        "placeUrl": "http://place.map.kakao.com/7931117"
    },
    {
        "placeName": "알오름",
        "category": "여행 > 관광,명소 > 오름",
        "addressJibun": "제주특별자치도 제주시 구좌읍 종달리 산 13-1",
        "longitude": 126.885354855674320,
        "latitude": 33.480575233681940,
        "placeUrl": "http://place.map.kakao.com/11264776"
    },
    {
        "placeName": "천아오름",
        "category": "여행 > 관광,명소 > 오름",
        "addressJibun": "제주특별자치도 제주시 애월읍 광령리 산 182-1",
        "longitude": 126.449927901245270,
        "latitude": 33.396255113735640,
        "placeUrl": "http://place.map.kakao.com/10769042"
    },
    {
        "placeName": "한라산 삼형제샛오름남쪽1",
        "category": "여행 > 관광,명소 > 오름",
        "addressJibun": "제주특별자치도 서귀포시 색달동 산 1",
        "longitude": 126.447657501208000,
        "latitude": 33.353628820429200,
        "placeUrl": "http://place.map.kakao.com/7926168"
    },
    {
        "placeName": "거린사슴",
        "category": "여행 > 관광,명소 > 오름",
        "addressJibun": "제주특별자치도 서귀포시 대포동 산 2-1",
        "longitude": 126.454236306763120,
        "latitude": 33.309605119019240,
        "placeUrl": "http://place.map.kakao.com/8175569"
    },
    {
        "placeName": "갯머리오름",
        "category": "여행 > 관광,명소 > 오름",
        "addressJibun": "제주특별자치도 서귀포시 대포동 산 1-8",
        "longitude": 126.457747427762000,
        "latitude": 33.309985645843580,
        "placeUrl": "http://place.map.kakao.com/25172867"
    },
    {
        "placeName": "두산봉",
        "category": "여행 > 관광,명소 > 오름",
        "addressJibun": "제주특별자치도 서귀포시 성산읍 시흥리 2661",
        "longitude": 126.887391747207400,
        "latitude": 33.477119438929620,
        "placeUrl": "http://place.map.kakao.com/10289213"
    },
    {
        "placeName": "밝은오름",
        "category": "여행 > 관광,명소 > 오름",
        "addressJibun": "제주특별자치도 제주시 해안동 465",
        "longitude": 126.464728255646240,
        "latitude": 33.440150254414450,
        "placeUrl": "http://place.map.kakao.com/8385072"
    },
    {
        "placeName": "붉은오름",
        "category": "여행 > 관광,명소 > 오름",
        "addressJibun": "제주특별자치도 제주시 애월읍 광령리 산 183-2",
        "longitude": 126.458977795462520,
        "latitude": 33.375336188246340,
        "placeUrl": "http://place.map.kakao.com/25259581"
    },
    {
        "placeName": "도두봉",
        "category": "여행 > 관광,명소 > 오름",
        "addressJibun": "제주특별자치도 제주시 도두일동 산 2",
        "longitude": 126.468350133875860,
        "latitude": 33.507986354756090,
        "placeUrl": "http://place.map.kakao.com/7834621"
    },
    {
        "placeName": "한라산 왕오름",
        "category": "여행 > 관광,명소 > 오름",
        "addressJibun": "제주특별자치도 서귀포시 중문동 산 1",
        "longitude": 126.475040926097000,
        "latitude": 33.354959372450200,
        "placeUrl": "http://place.map.kakao.com/8024164"
    },
    {
        "placeName": "볼레오름",
        "category": "여행 > 관광,명소 > 오름",
        "addressJibun": "제주특별자치도 서귀포시 하원동 산 1-1",
        "longitude": 126.484935964513780,
        "latitude": 33.353102920408300,
        "placeUrl": "http://place.map.kakao.com/7901198"
    },
    {
        "placeName": "남좃은오름 (폐쇄)",
        "category": "여행 > 관광,명소 > 오름",
        "addressJibun": "제주특별자치도 제주시 연동 산 20-2",
        "longitude": 126.497258687506400,
        "latitude": 33.472508574281650,
        "placeUrl": "http://place.map.kakao.com/25193943"
    },
    {
        "placeName": "검은오름",
        "category": "여행 > 관광,명소 > 오름",
        "addressJibun": "제주특별자치도 제주시 연동 산 110-1",
        "longitude": 126.498567139374070,
        "latitude": 33.442938790398955,
        "placeUrl": "http://place.map.kakao.com/8170465"
    },
    {
        "placeName": "노루손이오름",
        "category": "여행 > 관광,명소 > 오름",
        "addressJibun": "제주특별자치도 제주시 연동",
        "longitude": 126.495353184987000,
        "latitude": 33.426681624684400,
        "placeUrl": "http://place.map.kakao.com/25197241"
    },
    {
        "placeName": "사제비동산",
        "category": "여행 > 관광,명소 > 오름",
        "addressJibun": "제주특별자치도 제주시 애월읍 광령리 산 183-6",
        "longitude": 126.497385229721000,
        "latitude": 33.374807912031800,
        "placeUrl": "http://place.map.kakao.com/7914532"
    },
    {
        "placeName": "어점이오름",
        "category": "여행 > 관광,명소 > 오름",
        "addressJibun": "제주특별자치도 서귀포시 영남동 산 1",
        "longitude": 126.499039197591320,
        "latitude": 33.310808150713500,
        "placeUrl": "http://place.map.kakao.com/10578462"
    },
    {
        "placeName": "민오름",
        "category": "여행 > 관광,명소 > 오름",
        "addressJibun": "제주특별자치도 제주시 오라이동 산 28-1",
        "longitude": 126.507091643358080,
        "latitude": 33.475727991049210,
        "placeUrl": "http://place.map.kakao.com/8316764"
    },
    {
        "placeName": "걸쇠오름",
        "category": "여행 > 관광,명소 > 오름",
        "addressJibun": "제주특별자치도 제주시 연동 2488-254",
        "longitude": 126.503644699987650,
        "latitude": 33.413966420669680,
        "placeUrl": "http://place.map.kakao.com/25174790"
    },
    {
        "placeName": "한라산 민대가리동산(촛대봉)",
        "category": "여행 > 관광,명소 > 오름",
        "addressJibun": "제주특별자치도 제주시 애월읍 광령리 산 183-6",
        "longitude": 126.515207440151000,
        "latitude": 33.370760239548600,
        "placeUrl": "http://place.map.kakao.com/10838735"
    },
    {
        "placeName": "한라산 웃세붉은오름",
        "category": "여행 > 관광,명소 > 오름",
        "addressJibun": "제주특별자치도 서귀포시 서호동 산 183-1",
        "longitude": 126.520701746978000,
        "latitude": 33.360355339653200,
        "placeUrl": "http://place.map.kakao.com/10686012"
    },
    {
        "placeName": "큰두레왓",
        "category": "여행 > 관광,명소 > 오름",
        "addressJibun": "제주특별자치도 제주시 해안동 산 220-12",
        "longitude": 126.522044972703000,
        "latitude": 33.376630089413300,
        "placeUrl": "http://place.map.kakao.com/235012764"
    },
    {
        "placeName": "알방애오름",
        "category": "여행 > 관광,명소 > 오름",
        "addressJibun": "제주특별자치도 서귀포시 동홍동 산 1-1",
        "longitude": 126.529910793800820,
        "latitude": 33.347341494369280,
        "placeUrl": "http://place.map.kakao.com/10580865"
    },
    {
        "placeName": "쇠머리오름",
        "category": "여행 > 관광,명소 > 오름",
        "addressJibun": "제주특별자치도 제주시 우도면 연평리 산 23",
        "longitude": 126.963591262508690,
        "latitude": 33.492096750882010,
        "placeUrl": "http://place.map.kakao.com/8389783"
    },
    {
        "placeName": "소머리오름",
        "category": "여행 > 관광,명소 > 오름",
        "addressJibun": "제주특별자치도 제주시 우도면 연평리 산 21-2",
        "longitude": 126.964933303930000,
        "latitude": 33.491636417486000,
        "placeUrl": "http://place.map.kakao.com/246104758"
    },
    {
        "placeName": "보름이",
        "category": "여행 > 관광,명소 > 오름",
        "addressJibun": "제주특별자치도 서귀포시 서홍동 968-1",
        "longitude": 126.544655691339710,
        "latitude": 33.250319664629720,
        "placeUrl": "http://place.map.kakao.com/17789092"
    },
    {
        "placeName": "흙붉은오름",
        "category": "여행 > 관광,명소 > 오름",
        "addressJibun": "제주특별자치도 제주시 아라일동 산 67-18",
        "longitude": 126.560135923184400,
        "latitude": 33.379691231096494,
        "placeUrl": "http://place.map.kakao.com/8180841"
    },
    {
        "placeName": "카카오오름",
        "category": "여행 > 관광,명소 > 오름",
        "addressJibun": "제주특별자치도 제주시 영평동 2181",
        "addressDoro": "제주특별자치도 제주시 첨단로 242",
        "longitude": 126.569581927794000,
        "latitude": 33.450587024146400,
        "placeUrl": "http://place.map.kakao.com/17578680"
    },
    {
        "placeName": "봉개오름",
        "category": "여행 > 관광,명소 > 오름",
        "addressJibun": "제주특별자치도 제주시 봉개동 2613-1",
        "longitude": 126.591627918655000,
        "latitude": 33.493580429318500,
        "placeUrl": "http://place.map.kakao.com/241172259"
    },
    {
        "placeName": "살손장오리",
        "category": "여행 > 관광,명소 > 오름",
        "addressJibun": "제주특별자치도 제주시 월평동 산 6",
        "longitude": 126.595755861711820,
        "latitude": 33.406386431332280,
        "placeUrl": "http://place.map.kakao.com/7984402"
    },
    {
        "placeName": "불칸디오름",
        "category": "여행 > 관광,명소 > 오름",
        "addressJibun": "제주특별자치도 제주시 월평동 산 6",
        "longitude": 126.592480266048000,
        "latitude": 33.397191920111000,
        "placeUrl": "http://place.map.kakao.com/234999276"
    },
    {
        "placeName": "열안지오름",
        "category": "여행 > 관광,명소 > 오름",
        "addressJibun": "제주특별자치도 제주시 봉개동 778-2",
        "longitude": 126.605352642907080,
        "latitude": 33.473074767206874,
        "placeUrl": "http://place.map.kakao.com/25319845"
    },
    {
        "placeName": "밧세미오름",
        "category": "여행 > 관광,명소 > 오름",
        "addressJibun": "제주특별자치도 제주시 봉개동 산 3",
        "longitude": 126.603094624527360,
        "latitude": 33.465257895177640,
        "placeUrl": "http://place.map.kakao.com/25244025"
    },
    {
        "placeName": "테역장오리",
        "category": "여행 > 관광,명소 > 오름",
        "addressJibun": "제주특별자치도 제주시 봉개동 산 78-2",
        "longitude": 126.603247400119930,
        "latitude": 33.410907839156400,
        "placeUrl": "http://place.map.kakao.com/8109792"
    },
    {
        "placeName": "두수오름",
        "category": "여행 > 관광,명소 > 오름",
        "addressJibun": "제주특별자치도 서귀포시 남원읍 하례리",
        "longitude": 126.605151515478000,
        "latitude": 33.305224618991300,
        "placeUrl": "http://place.map.kakao.com/25218190"
    },
    {
        "placeName": "영천악",
        "category": "여행 > 관광,명소 > 오름",
        "addressJibun": "제주특별자치도 서귀포시 상효동 2364",
        "longitude": 126.600822394239200,
        "latitude": 33.295266768721305,
        "placeUrl": "http://place.map.kakao.com/11189551"
    },
    {
        "placeName": "칡오름",
        "category": "여행 > 관광,명소 > 오름",
        "addressJibun": "제주특별자치도 제주시 봉개동 466-2",
        "longitude": 126.612699996356800,
        "latitude": 33.475366367758160,
        "placeUrl": "http://place.map.kakao.com/8111773"
    },
    {
        "placeName": "안세미오름",
        "category": "여행 > 관광,명소 > 오름",
        "addressJibun": "제주특별자치도 제주시 봉개동 산 2",
        "longitude": 126.607260853396940,
        "latitude": 33.467416974293900,
        "placeUrl": "http://place.map.kakao.com/27302956"
    },
    {
        "placeName": "수악",
        "category": "여행 > 관광,명소 > 오름",
        "addressJibun": "제주특별자치도 서귀포시 남원읍 하례리 산 10",
        "addressDoro": "제주특별자치도 서귀포시 남원읍 516로 1042",
        "longitude": 126.609450213585400,
        "latitude": 33.324630310651386,
        "placeUrl": "http://place.map.kakao.com/8455452"
    },
    {
        "placeName": "물오름",
        "category": "여행 > 관광,명소 > 오름",
        "addressJibun": "제주특별자치도 제주시 조천읍 교래리 산 137-4",
        "longitude": 126.623252910372070,
        "latitude": 33.384299628888456,
        "placeUrl": "http://place.map.kakao.com/11289720"
    },
    {
        "placeName": "동수악",
        "category": "여행 > 관광,명소 > 오름",
        "addressJibun": "제주특별자치도 서귀포시 남원읍 한남리 산 2-12",
        "longitude": 126.627669973553040,
        "latitude": 33.361364142312600,
        "placeUrl": "http://place.map.kakao.com/7840524"
    },
    {
        "placeName": "예촌망",
        "category": "여행 > 관광,명소 > 오름",
        "addressJibun": "제주특별자치도 서귀포시 남원읍 하례리 95-2",
        "longitude": 126.630405773512440,
        "latitude": 33.256949752007530,
        "placeUrl": "http://place.map.kakao.com/8015155"
    },
    {
        "placeName": "보롬이",
        "category": "여행 > 관광,명소 > 오름",
        "addressJibun": "제주특별자치도 서귀포시 대정읍 무릉리 3526-3",
        "longitude": 126.192306096016800,
        "latitude": 33.270525062871030,
        "placeUrl": "http://place.map.kakao.com/11299651"
    },
    {
        "placeName": "족은절물오름",
        "category": "여행 > 관광,명소 > 오름",
        "addressJibun": "제주특별자치도 제주시 봉개동",
        "longitude": 126.633081893801000,
        "latitude": 33.431208313076400,
        "placeUrl": "http://place.map.kakao.com/25361139"
    },
    {
        "placeName": "궤펜이오름",
        "category": "여행 > 관광,명소 > 오름",
        "addressJibun": "제주특별자치도 제주시 조천읍 교래리 산 137-1",
        "longitude": 126.633866582701000,
        "latitude": 33.394124714772140,
        "placeUrl": "http://place.map.kakao.com/11267601"
    },
    {
        "placeName": "샛궤펜이",
        "category": "여행 > 관광,명소 > 오름",
        "addressJibun": "제주특별자치도 제주시 조천읍 교래리 137-1",
        "longitude": 126.630121287579000,
        "latitude": 33.392978478351000,
        "placeUrl": "http://place.map.kakao.com/8426762"
    },
    {
        "placeName": "구그네오름",
        "category": "여행 > 관광,명소 > 오름",
        "addressJibun": "제주특별자치도 제주시 조천읍 와흘리 957",
        "longitude": 126.639252560401700,
        "latitude": 33.490547386753285,
        "placeUrl": "http://place.map.kakao.com/8191401"
    },
    {
        "placeName": "족은지그리오름",
        "category": "여행 > 관광,명소 > 오름",
        "addressJibun": "제주특별자치도 제주시 조천읍 교래리 산 115",
        "longitude": 126.645992022279800,
        "latitude": 33.450275133980405,
        "placeUrl": "http://place.map.kakao.com/8060802"
    },
    {
        "placeName": "생길이오름",
        "category": "여행 > 관광,명소 > 오름",
        "addressJibun": "제주특별자치도 서귀포시 남원읍 신례리 산 33-1",
        "longitude": 126.642516523874560,
        "latitude": 33.305652395874600,
        "placeUrl": "http://place.map.kakao.com/25278387"
    },
    {
        "placeName": "판포오름",
        "category": "여행 > 관광,명소 > 오름",
        "addressJibun": "제주특별자치도 제주시 한경면 판포리 934",
        "longitude": 126.213520892882000,
        "latitude": 33.358064642991800,
        "placeUrl": "http://place.map.kakao.com/8112433"
    },
    {
        "placeName": "굽은오름",
        "category": "여행 > 관광,명소 > 오름",
        "addressJibun": "제주특별자치도 제주시 한경면 조수리 3855",
        "longitude": 126.212275484487040,
        "latitude": 33.299130280623850,
        "placeUrl": "http://place.map.kakao.com/8663815"
    },
    {
        "placeName": "물찻오름",
        "category": "여행 > 관광,명소 > 오름",
        "addressJibun": "제주특별자치도 제주시 조천읍 교래리 산 137-1",
        "longitude": 126.652874584630140,
        "latitude": 33.394847434167950,
        "placeUrl": "http://place.map.kakao.com/10417720"
    },
    {
        "placeName": "거린족은오름",
        "category": "여행 > 관광,명소 > 오름",
        "addressJibun": "제주특별자치도 서귀포시 남원읍 한남리 산 2-1",
        "longitude": 126.661364266594180,
        "latitude": 33.349530387614365,
        "placeUrl": "http://place.map.kakao.com/25173313"
    },
    {
        "placeName": "고이오름",
        "category": "여행 > 관광,명소 > 오름",
        "addressJibun": "제주특별자치도 서귀포시 남원읍 한남리 산 15-2",
        "longitude": 126.660787433081770,
        "latitude": 33.319028736541650,
        "placeUrl": "http://place.map.kakao.com/8657685"
    },
    {
        "placeName": "비양봉",
        "category": "여행 > 관광,명소 > 오름",
        "addressJibun": "제주특별자치도 제주시 한림읍 협재리 산 100-1",
        "longitude": 126.226972967267000,
        "latitude": 33.409453128448900,
        "placeUrl": "http://place.map.kakao.com/7915415"
    },
    {
        "placeName": "세미오름",
        "category": "여행 > 관광,명소 > 오름",
        "addressJibun": "제주특별자치도 제주시 조천읍 대흘리 산 27-8",
        "longitude": 126.669421777562020,
        "latitude": 33.474047489006026,
        "placeUrl": "http://place.map.kakao.com/10566814"
    },
    {
        "placeName": "마은이옆",
        "category": "여행 > 관광,명소 > 오름",
        "addressJibun": "제주특별자치도 서귀포시 표선면 가시리 산 158",
        "longitude": 126.664297202769860,
        "latitude": 33.391750259706910,
        "placeUrl": "http://place.map.kakao.com/10359873"
    },
    {
        "placeName": "붉은오름",
        "category": "여행 > 관광,명소 > 오름",
        "addressJibun": "제주특별자치도 서귀포시 표선면 가시리 산 158",
        "longitude": 126.679538520605230,
        "latitude": 33.399858193625720,
        "placeUrl": "http://place.map.kakao.com/10455841"
    },
    {
        "placeName": "대천이오름",
        "category": "여행 > 관광,명소 > 오름",
        "addressJibun": "제주특별자치도 제주시 조천읍 선흘리 산 154",
        "longitude": 126.685021723587970,
        "latitude": 33.451358663343840,
        "placeUrl": "http://place.map.kakao.com/25206936"
    },
    {
        "placeName": "방애오름",
        "category": "여행 > 관광,명소 > 오름",
        "addressJibun": "제주특별자치도 제주시 조천읍 교래리 산 45",
        "longitude": 126.684519464011940,
        "latitude": 33.443924541359760,
        "placeUrl": "http://place.map.kakao.com/10810149"
    },
    {
        "placeName": "모슬봉",
        "category": "여행 > 관광,명소 > 오름",
        "addressJibun": "제주특별자치도 서귀포시 대정읍 동일리 2081-3",
        "longitude": 126.258169311306500,
        "latitude": 33.238649771259500,
        "placeUrl": "http://place.map.kakao.com/7876363"
    },
    {
        "placeName": "우진제비오름",
        "category": "여행 > 관광,명소 > 오름",
        "addressJibun": "제주특별자치도 제주시 조천읍 선흘리 산 112",
        "longitude": 126.699449572091600,
        "latitude": 33.467789266940490,
        "placeUrl": "http://place.map.kakao.com/8460981"
    },
    {
        "placeName": "산굼부리",
        "category": "여행 > 관광,명소 > 오름",
        "addressJibun": "제주특별자치도 제주시 조천읍 교래리 166-2",
        "longitude": 126.693831998429520,
        "latitude": 33.432574094181600,
        "placeUrl": "http://place.map.kakao.com/21348535"
    },
    {
        "placeName": "까끄래기오름",
        "category": "여행 > 관광,명소 > 오름",
        "addressJibun": "제주특별자치도 제주시 조천읍 교래리 128-1",
        "longitude": 126.703147488376060,
        "latitude": 33.431644640136135,
        "placeUrl": "http://place.map.kakao.com/25190845"
    },
    {
        "placeName": "밝은오름",
        "category": "여행 > 관광,명소 > 오름",
        "addressJibun": "제주특별자치도 제주시 한림읍 상명리 1697",
        "longitude": 126.266025788382000,
        "latitude": 33.360870924814000,
        "placeUrl": "http://place.map.kakao.com/11070664"
    },
    {
        "placeName": "부대악",
        "category": "여행 > 관광,명소 > 오름",
        "addressJibun": "제주특별자치도 제주시 조천읍 선흘리 산 103-1",
        "longitude": 126.708519827995160,
        "latitude": 33.446419420653600,
        "placeUrl": "http://place.map.kakao.com/10471809"
    },
    {
        "placeName": "명월오름",
        "category": "여행 > 관광,명소 > 오름",
        "addressJibun": "제주특별자치도 제주시 한림읍 명월리",
        "longitude": 126.278997351789000,
        "latitude": 33.382603235312200,
        "placeUrl": "http://place.map.kakao.com/10339539"
    },
    {
        "placeName": "거문오름",
        "category": "여행 > 관광,명소 > 오름",
        "addressJibun": "제주특별자치도 제주시 조천읍 선흘리 산 102-1",
        "longitude": 126.718255973763320,
        "latitude": 33.454838592677930,
        "placeUrl": "http://place.map.kakao.com/18489468"
    },
    {
        "placeName": "소록산",
        "category": "여행 > 관광,명소 > 오름",
        "addressJibun": "제주특별자치도 서귀포시 표선면 가시리 산 87-24",
        "longitude": 126.722785770041550,
        "latitude": 33.400578146567530,
        "placeUrl": "http://place.map.kakao.com/7958576"
    },
    {
        "placeName": "갯거리오름",
        "category": "여행 > 관광,명소 > 오름",
        "addressJibun": "제주특별자치도 제주시 한림읍 명월리 18",
        "longitude": 126.292728138241760,
        "latitude": 33.375755287577850,
        "placeUrl": "http://place.map.kakao.com/8650849"
    },
    {
        "placeName": "가메옥",
        "category": "여행 > 관광,명소 > 오름",
        "addressJibun": "제주특별자치도 제주시 구좌읍 덕천리 1712",
        "longitude": 126.732661165271000,
        "latitude": 33.453198909535100,
        "placeUrl": "http://place.map.kakao.com/8109737"
    },
    {
        "placeName": "번널오름",
        "category": "여행 > 관광,명소 > 오름",
        "addressJibun": "제주특별자치도 서귀포시 표선면 가시리 산 10-5",
        "longitude": 126.745905517780200,
        "latitude": 33.374319351954696,
        "placeUrl": "http://place.map.kakao.com/7895084"
    },
    {
        "placeName": "말젯오름",
        "category": "여행 > 관광,명소 > 오름",
        "addressJibun": "제주특별자치도 제주시 애월읍 곽지리 1085",
        "longitude": 126.315471351870000,
        "latitude": 33.450118939338700,
        "placeUrl": "http://place.map.kakao.com/17786069"
    },
    {
        "placeName": "샛오름",
        "category": "여행 > 관광,명소 > 오름",
        "addressJibun": "제주특별자치도 제주시 애월읍 곽지리 산 14",
        "longitude": 126.317175954168000,
        "latitude": 33.448346803395100,
        "placeUrl": "http://place.map.kakao.com/8229310"
    },
    {
        "placeName": "정물알오름",
        "category": "여행 > 관광,명소 > 오름",
        "addressJibun": "제주특별자치도 제주시 한림읍 금악리 105-1",
        "longitude": 126.324420539667000,
        "latitude": 33.340541313641100,
        "placeUrl": "http://place.map.kakao.com/8062305"
    },
    {
        "placeName": "도너리오름",
        "category": "여행 > 관광,명소 > 오름",
        "addressJibun": "제주특별자치도 제주시 한림읍 금악리 산 60",
        "longitude": 126.321343211403000,
        "latitude": 33.325698568667000,
        "placeUrl": "http://place.map.kakao.com/8260448"
    },
    {
        "placeName": "썩은다리",
        "category": "여행 > 관광,명소 > 오름",
        "addressJibun": "제주특별자치도 서귀포시 안덕면 화순리 1913",
        "longitude": 126.329324220687000,
        "latitude": 33.241040955109200,
        "placeUrl": "http://place.map.kakao.com/11056392"
    },
    {
        "placeName": "어대오름",
        "category": "여행 > 관광,명소 > 오름",
        "addressJibun": "제주특별자치도 제주시 구좌읍 덕천리 509-1",
        "longitude": 126.760830234305890,
        "latitude": 33.495649913924210,
        "placeUrl": "http://place.map.kakao.com/8422867"
    },
    {
        "placeName": "뒤굽은이오름",
        "category": "여행 > 관광,명소 > 오름",
        "addressJibun": "제주특별자치도 제주시 구좌읍 송당리 산 38",
        "longitude": 126.766833430237980,
        "latitude": 33.478536301382160,
        "placeUrl": "http://place.map.kakao.com/7860041"
    },
    {
        "placeName": "밧돌오름",
        "category": "여행 > 관광,명소 > 오름",
        "addressJibun": "제주특별자치도 제주시 구좌읍 송당리 산 66-1",
        "longitude": 126.760069972586120,
        "latitude": 33.460713975644560,
        "placeUrl": "http://place.map.kakao.com/7896521"
    },
    {
        "placeName": "모지오름",
        "category": "여행 > 관광,명소 > 오름",
        "addressJibun": "제주특별자치도 서귀포시 표선면 성읍리 산 22",
        "longitude": 126.768138509605240,
        "latitude": 33.393616929776606,
        "placeUrl": "http://place.map.kakao.com/10328747"
    },
    {
        "placeName": "누운오름",
        "category": "여행 > 관광,명소 > 오름",
        "addressJibun": "제주특별자치도 제주시 한림읍 금악리 198-15",
        "longitude": 126.331191641029500,
        "latitude": 33.362377785470490,
        "placeUrl": "http://place.map.kakao.com/11017083"
    },
    {
        "placeName": "거린오름",
        "category": "여행 > 관광,명소 > 오름",
        "addressJibun": "제주특별자치도 서귀포시 안덕면 동광리 산 94",
        "longitude": 126.331933016440940,
        "latitude": 33.303136457977670,
        "placeUrl": "http://place.map.kakao.com/8168834"
    },
    {
        "placeName": "장자오름",
        "category": "여행 > 관광,명소 > 오름",
        "addressJibun": "제주특별자치도 서귀포시 표선면 성읍리 2759-1",
        "longitude": 126.775611083830920,
        "latitude": 33.388927829103714,
        "placeUrl": "http://place.map.kakao.com/8055384"
    },
    {
        "placeName": "망오름",
        "category": "여행 > 관광,명소 > 오름",
        "addressJibun": "제주특별자치도 제주시 애월읍 고내리 산 3-1",
        "longitude": 126.341410863234490,
        "latitude": 33.459206785072060,
        "placeUrl": "http://place.map.kakao.com/8649358"
    },
    {
        "placeName": "이달이촛대봉",
        "category": "여행 > 관광,명소 > 오름",
        "addressJibun": "제주특별자치도 제주시 애월읍 봉성리 산 71-1",
        "longitude": 126.347004440991000,
        "latitude": 33.366368597128400,
        "placeUrl": "http://place.map.kakao.com/8490593"
    },
    {
        "placeName": "원물오름",
        "category": "여행 > 관광,명소 > 오름",
        "addressJibun": "제주특별자치도 서귀포시 안덕면 동광리 산 41",
        "longitude": 126.344881139638320,
        "latitude": 33.323205765737790,
        "placeUrl": "http://place.map.kakao.com/25334276"
    },
    {
        "placeName": "대물동산",
        "category": "여행 > 관광,명소 > 오름",
        "addressJibun": "제주특별자치도 제주시 구좌읍 송당리 1919",
        "longitude": 126.785778195761000,
        "latitude": 33.465264590861800,
        "placeUrl": "http://place.map.kakao.com/7823928"
    },
    {
        "placeName": "새별오름",
        "category": "여행 > 관광,명소 > 오름",
        "addressJibun": "제주특별자치도 제주시 애월읍 봉성리 산 59-8",
        "longitude": 126.357730665739800,
        "latitude": 33.366277591139294,
        "placeUrl": "http://place.map.kakao.com/25274725"
    },
    {
        "placeName": "높은오름",
        "category": "여행 > 관광,명소 > 오름",
        "addressJibun": "제주특별자치도 제주시 구좌읍 송당리 산 213-1",
        "longitude": 126.793069032357600,
        "latitude": 33.456411465687390,
        "placeUrl": "http://place.map.kakao.com/25199090"
    },
    {
        "placeName": "영주산",
        "category": "여행 > 관광,명소 > 오름",
        "addressJibun": "제주특별자치도 서귀포시 표선면 성읍리 산 18-1",
        "longitude": 126.796238531698580,
        "latitude": 33.404566795980440,
        "placeUrl": "http://place.map.kakao.com/8018193"
    },
    {
        "placeName": "눈오름",
        "category": "여행 > 관광,명소 > 오름",
        "addressJibun": "제주특별자치도 제주시 애월읍 소길리 산 12",
        "longitude": 126.370278098978000,
        "latitude": 33.439649814276800,
        "placeUrl": "http://place.map.kakao.com/228295093"
    },
    {
        "placeName": "괴수치",
        "category": "여행 > 관광,명소 > 오름",
        "addressJibun": "제주특별자치도 서귀포시 안덕면 광평리 산 81",
        "longitude": 126.369585644843200,
        "latitude": 33.340177413936765,
        "placeUrl": "http://place.map.kakao.com/8194672"
    },
    {
        "placeName": "개오름",
        "category": "여행 > 관광,명소 > 오름",
        "addressJibun": "제주특별자치도 서귀포시 안덕면 상천리 산 103",
        "longitude": 126.369233637923000,
        "latitude": 33.315986396054500,
        "placeUrl": "http://place.map.kakao.com/237412511"
    },
    {
        "placeName": "대병악",
        "category": "여행 > 관광,명소 > 오름",
        "addressJibun": "제주특별자치도 서귀포시 안덕면 상창리 산 2-1",
        "longitude": 126.368257849107820,
        "latitude": 33.306258476159850,
        "placeUrl": "http://place.map.kakao.com/10255199"
    },
    {
        "placeName": "군산",
        "category": "여행 > 관광,명소 > 오름",
        "addressJibun": "제주특별자치도 서귀포시 안덕면 창천리 산 3-1",
        "longitude": 126.369970304514240,
        "latitude": 33.253239609507400,
        "placeUrl": "http://place.map.kakao.com/25186462"
    },
    {
        "placeName": "좌보미오름",
        "category": "여행 > 관광,명소 > 오름",
        "addressJibun": "제주특별자치도 서귀포시 표선면 성읍리 산 6",
        "longitude": 126.806766973366480,
        "latitude": 33.436096850676640,
        "placeUrl": "http://place.map.kakao.com/26974939"
    },
    {
        "placeName": "월랑지",
        "category": "여행 > 관광,명소 > 오름",
        "addressJibun": "제주특별자치도 서귀포시 표선면 성읍리 산 5",
        "longitude": 126.809641232318040,
        "latitude": 33.439149644155710,
        "placeUrl": "http://place.map.kakao.com/8042882"
    },
    {
        "placeName": "좌보미알오름",
        "category": "여행 > 관광,명소 > 오름",
        "addressJibun": "제주특별자치도 서귀포시 표선면 성읍리",
        "longitude": 126.807381503792000,
        "latitude": 33.431006403220300,
        "placeUrl": "http://place.map.kakao.com/17788991"
    },
    {
        "placeName": "아심전지",
        "category": "여행 > 관광,명소 > 오름",
        "addressJibun": "제주특별자치도 서귀포시 표선면 하천리 2046-2",
        "longitude": 126.807886498450000,
        "latitude": 33.367685718681700,
        "placeUrl": "http://place.map.kakao.com/228853061"
    },
    {
        "placeName": "북돌아진 오름",
        "category": "여행 > 관광,명소 > 오름",
        "addressJibun": "제주특별자치도 제주시 애월읍 봉성리 산 41",
        "longitude": 126.373800894958000,
        "latitude": 33.356354599317200,
        "placeUrl": "http://place.map.kakao.com/7906497"
    },
    {
        "placeName": "괴오름",
        "category": "여행 > 관광,명소 > 오름",
        "addressJibun": "제주특별자치도 제주시 애월읍 봉성리 산 41",
        "longitude": 126.379488443838000,
        "latitude": 33.358496512738300,
        "placeUrl": "http://place.map.kakao.com/10154919"
    },
    {
        "placeName": "동물오름",
        "category": "여행 > 관광,명소 > 오름",
        "addressJibun": "제주특별자치도 제주시 애월읍 봉성리 산 41",
        "longitude": 126.379789071974460,
        "latitude": 33.358525062910040,
        "placeUrl": "http://place.map.kakao.com/25215519"
    },
    {
        "placeName": "궤미오름",
        "category": "여행 > 관광,명소 > 오름",
        "addressJibun": "제주특별자치도 제주시 애월읍 봉성리 산 41",
        "longitude": 126.373839364234200,
        "latitude": 33.356383644644770,
        "placeUrl": "http://place.map.kakao.com/25187565"
    },
    {
        "placeName": "소병악",
        "category": "여행 > 관광,명소 > 오름",
        "addressJibun": "제주특별자치도 서귀포시 안덕면 상창리 산 2-1",
        "longitude": 126.374296770590480,
        "latitude": 33.308344704708280,
        "placeUrl": "http://place.map.kakao.com/7958410"
    },
    {
        "placeName": "발이오름",
        "category": "여행 > 관광,명소 > 오름",
        "addressJibun": "제주특별자치도 제주시 애월읍 소길리 산 246",
        "longitude": 126.384120255876000,
        "latitude": 33.398882463610400,
        "placeUrl": "http://place.map.kakao.com/8121453"
    },
    {
        "placeName": "하늬오름",
        "category": "여행 > 관광,명소 > 오름",
        "addressJibun": "제주특별자치도 서귀포시 안덕면 상천리 산 97",
        "longitude": 126.385019588000080,
        "latitude": 33.325005900377780,
        "placeUrl": "http://place.map.kakao.com/25389741"
    },
    {
        "placeName": "이돋이오름",
        "category": "여행 > 관광,명소 > 오름",
        "addressJibun": "제주특별자치도 서귀포시 안덕면 광평리 산 12",
        "longitude": 126.402858847511570,
        "latitude": 33.339750395436390,
        "placeUrl": "http://place.map.kakao.com/8041649"
    },
    {
        "placeName": "영아리",
        "category": "여행 > 관광,명소 > 오름",
        "addressJibun": "제주특별자치도 서귀포시 안덕면 상천리 산 24",
        "longitude": 126.399963867573000,
        "latitude": 33.330052263490300,
        "placeUrl": "http://place.map.kakao.com/8021042"
    },
    {
        "placeName": "남거니오름",
        "category": "여행 > 관광,명소 > 오름",
        "addressJibun": "제주특별자치도 서귀포시 성산읍 수산리 3954",
        "longitude": 126.842022264711940,
        "latitude": 33.435369578887220,
        "placeUrl": "http://place.map.kakao.com/25192869"
    },
    {
        "placeName": "갈마못",
        "category": "여행 > 관광,명소 > 오름",
        "addressJibun": "제주특별자치도 서귀포시 성산읍 신풍리",
        "longitude": 126.836720513292000,
        "latitude": 33.366510700603300,
        "placeUrl": "http://place.map.kakao.com/12969030"
    },
    {
        "placeName": "동머루",
        "category": "여행 > 관광,명소 > 오름",
        "addressJibun": "제주특별자치도 서귀포시 성산읍 신풍리 589",
        "longitude": 126.835202472301000,
        "latitude": 33.370366735761300,
        "placeUrl": "http://place.map.kakao.com/228851951"
    },
    {
        "placeName": "파군봉",
        "category": "여행 > 관광,명소 > 오름",
        "addressJibun": "제주특별자치도 제주시 애월읍 하귀1리 688-1",
        "longitude": 126.412690867369000,
        "latitude": 33.478696692982700,
        "placeUrl": "http://place.map.kakao.com/10889367"
    },
    {
        "placeName": "큰노꼬메오름",
        "category": "여행 > 관광,명소 > 오름",
        "addressJibun": "제주특별자치도 제주시 애월읍 유수암리 산 138",
        "longitude": 126.411458201066480,
        "latitude": 33.389128181708415,
        "placeUrl": "http://place.map.kakao.com/10271092"
    },
    {
        "placeName": "유건에오름",
        "category": "여행 > 관광,명소 > 오름",
        "addressJibun": "제주특별자치도 서귀포시 성산읍 난산리 2302",
        "longitude": 126.845805843664000,
        "latitude": 33.413222582549900,
        "placeUrl": "http://place.map.kakao.com/8477757"
    },
    {
        "placeName": "안오름",
        "category": "여행 > 관광,명소 > 오름",
        "addressJibun": "제주특별자치도 제주시 애월읍 고성리",
        "longitude": 126.414381269259000,
        "latitude": 33.451314359871000,
        "placeUrl": "http://place.map.kakao.com/25310024"
    },
    {
        "placeName": "극락오름",
        "category": "여행 > 관광,명소 > 오름",
        "addressJibun": "제주특별자치도 제주시 애월읍 고성리 1032",
        "longitude": 126.414533061889600,
        "latitude": 33.434483216407050,
        "placeUrl": "http://place.map.kakao.com/25187989"
    },
    {
        "placeName": "한대오름",
        "category": "여행 > 관광,명소 > 오름",
        "addressJibun": "제주특별자치도 제주시 애월읍 봉성리 산 1",
        "longitude": 126.424450099710970,
        "latitude": 33.356330124355910,
        "placeUrl": "http://place.map.kakao.com/25392324"
    },
    {
        "placeName": "돌오름",
        "category": "여행 > 관광,명소 > 오름",
        "addressJibun": "제주특별자치도 서귀포시 안덕면 상천리 산 1",
        "longitude": 126.429750156242080,
        "latitude": 33.337022280101394,
        "placeUrl": "http://place.map.kakao.com/7834687"
    },
    {
        "placeName": "대왕산",
        "category": "여행 > 관광,명소 > 오름",
        "addressJibun": "제주특별자치도 서귀포시 성산읍 수산리 1431",
        "longitude": 126.872916283263380,
        "latitude": 33.456125015062110,
        "placeUrl": "http://place.map.kakao.com/25206398"
    },
    {
        "placeName": "노로오름",
        "category": "여행 > 관광,명소 > 오름",
        "addressJibun": "제주특별자치도 제주시 애월읍 상가리 산 124",
        "longitude": 126.439303004846600,
        "latitude": 33.366260766970060,
        "placeUrl": "http://place.map.kakao.com/25197040"
    },
    {
        "placeName": "족은노로오름",
        "category": "여행 > 관광,명소 > 오름",
        "addressJibun": "제주특별자치도 제주시 애월읍 고성리 산 145",
        "longitude": 126.445027678227000,
        "latitude": 33.369175237814100,
        "placeUrl": "http://place.map.kakao.com/8065787"
    },
    {
        "placeName": "말산메",
        "category": "여행 > 관광,명소 > 오름",
        "addressJibun": "제주특별자치도 서귀포시 성산읍 시흥리 2656",
        "longitude": 126.885402379093000,
        "latitude": 33.480436430223700,
        "placeUrl": "http://place.map.kakao.com/246107756"
    },
    {
        "placeName": "민모루오름",
        "category": "여행 > 관광,명소 > 오름",
        "addressJibun": "제주특별자치도 서귀포시 중문동 산 1-3",
        "longitude": 126.455550458313840,
        "latitude": 33.325353076969640,
        "placeUrl": "http://place.map.kakao.com/7883453"
    },
    {
        "placeName": "냇새오름",
        "category": "여행 > 관광,명소 > 오름",
        "addressJibun": "제주특별자치도 제주시 애월읍 광령리",
        "longitude": 126.461583272229000,
        "latitude": 33.392322043420600,
        "placeUrl": "http://place.map.kakao.com/25195576"
    },
    {
        "placeName": "살핀오름",
        "category": "여행 > 관광,명소 > 오름",
        "addressJibun": "제주특별자치도 제주시 애월읍 광령리 산 183-2",
        "longitude": 126.462169027503480,
        "latitude": 33.367885649223890,
        "placeUrl": "http://place.map.kakao.com/25267011"
    },
    {
        "placeName": "한라산 장오름",
        "category": "여행 > 관광,명소 > 오름",
        "addressJibun": "제주특별자치도 서귀포시 중문동 산 1",
        "longitude": 126.467103838705000,
        "latitude": 33.356324861352500,
        "placeUrl": "http://place.map.kakao.com/8070344"
    },
    {
        "placeName": "눈오름",
        "category": "여행 > 관광,명소 > 오름",
        "addressJibun": "제주특별자치도 제주시 해안동 166-17",
        "longitude": 126.474797021243960,
        "latitude": 33.459466738565230,
        "placeUrl": "http://place.map.kakao.com/8297242"
    },
    {
        "placeName": "법정악",
        "category": "여행 > 관광,명소 > 오름",
        "addressJibun": "제주특별자치도 서귀포시 하원동 산 1-1",
        "longitude": 126.469606067583980,
        "latitude": 33.313610839299630,
        "placeUrl": "http://place.map.kakao.com/7901044"
    },
    {
        "placeName": "궤사름",
        "category": "여행 > 관광,명소 > 오름",
        "addressJibun": "제주특별자치도 서귀포시 도순동 217",
        "longitude": 126.476546941063000,
        "latitude": 33.260830571340700,
        "placeUrl": "http://place.map.kakao.com/234956975"
    },
    {
        "placeName": "소수산봉",
        "category": "여행 > 관광,명소 > 오름",
        "addressJibun": "제주특별자치도 서귀포시 성산읍 고성리 887",
        "longitude": 126.912216429511960,
        "latitude": 33.436763595331710,
        "placeUrl": "http://place.map.kakao.com/25288503"
    },
    {
        "placeName": "쳇망오름",
        "category": "여행 > 관광,명소 > 오름",
        "addressJibun": "제주특별자치도 제주시 애월읍 광령리 산 183-6",
        "longitude": 126.488116070273400,
        "latitude": 33.371625224657380,
        "placeUrl": "http://place.map.kakao.com/7863048"
    },
    {
        "placeName": "한라산 쉼터동산",
        "category": "여행 > 관광,명소 > 오름",
        "addressJibun": "제주특별자치도 제주시 애월읍 광령리 산 183-1",
        "longitude": 126.479811489571000,
        "latitude": 33.369336682055100,
        "placeUrl": "http://place.map.kakao.com/7967070"
    },
    {
        "placeName": "이스렁오름",
        "category": "여행 > 관광,명소 > 오름",
        "addressJibun": "제주특별자치도 제주시 애월읍 광령리 산 183-6",
        "longitude": 126.484196793631330,
        "latitude": 33.362214233500400,
        "placeUrl": "http://place.map.kakao.com/10753236"
    },
    {
        "placeName": "식산봉",
        "category": "여행 > 관광,명소 > 오름",
        "addressJibun": "제주특별자치도 서귀포시 성산읍 오조리 313",
        "longitude": 126.919939076117840,
        "latitude": 33.465680786479915,
        "placeUrl": "http://place.map.kakao.com/25297842"
    },
    {
        "placeName": "삼무공원 베두리오름",
        "category": "여행 > 관광,명소 > 오름",
        "addressJibun": "제주특별자치도 제주시 연동",
        "longitude": 126.491776522901000,
        "latitude": 33.492011116265700,
        "placeUrl": "http://place.map.kakao.com/17807680"
    },
    {
        "placeName": "광이오름",
        "category": "여행 > 관광,명소 > 오름",
        "addressJibun": "제주특별자치도 제주시 연동 산 62",
        "longitude": 126.494881164138820,
        "latitude": 33.468055848848090,
        "placeUrl": "http://place.map.kakao.com/25181898"
    },
    {
        "placeName": "노리손이",
        "category": "여행 > 관광,명소 > 오름",
        "addressJibun": "제주특별자치도 제주시 연동 산 137",
        "longitude": 126.496833727448230,
        "latitude": 33.425575063293210,
        "placeUrl": "http://place.map.kakao.com/8205517"
    },
    {
        "placeName": "어승생",
        "category": "여행 > 관광,명소 > 오름",
        "addressJibun": "제주특별자치도 제주시 해안동 산 220-12",
        "longitude": 126.489278269828450,
        "latitude": 33.396522480543570,
        "placeUrl": "http://place.map.kakao.com/10574639"
    },
    {
        "placeName": "만세동산",
        "category": "여행 > 관광,명소 > 오름",
        "addressJibun": "제주특별자치도 제주시 애월읍 광령리 산 183-6",
        "longitude": 126.506010855349250,
        "latitude": 33.368194066815505,
        "placeUrl": "http://place.map.kakao.com/7870117"
    },
    {
        "placeName": "한라산 웃세족은오름",
        "category": "여행 > 관광,명소 > 오름",
        "addressJibun": "제주특별자치도 제주시 애월읍 광령리 산 183-6",
        "longitude": 126.510839057628000,
        "latitude": 33.361023738412100,
        "placeUrl": "http://place.map.kakao.com/8076005"
    },
    {
        "placeName": "오백나한",
        "category": "여행 > 관광,명소 > 오름",
        "addressJibun": "제주특별자치도 서귀포시 하원동",
        "longitude": 126.502058528330000,
        "latitude": 33.356538480613200,
        "placeUrl": "http://place.map.kakao.com/11274593"
    },
    {
        "placeName": "한라산 큰드레큰두레왓",
        "category": "여행 > 관광,명소 > 오름",
        "addressJibun": "제주특별자치도 제주시 해안동 산 220-12",
        "longitude": 126.521430161472000,
        "latitude": 33.378026117349300,
        "placeUrl": "http://place.map.kakao.com/8121105"
    },
    {
        "placeName": "열안지오름",
        "category": "여행 > 관광,명소 > 오름",
        "addressJibun": "제주특별자치도 제주시 오라이동 산 97",
        "longitude": 126.521203247612870,
        "latitude": 33.425875286120290,
        "placeUrl": "http://place.map.kakao.com/8499806"
    },
    {
        "placeName": "장구목오름",
        "category": "여행 > 관광,명소 > 오름",
        "addressJibun": "제주특별자치도 제주시 애월읍 광령리 산 183-6",
        "longitude": 126.525116468495880,
        "latitude": 33.366308516590735,
        "placeUrl": "http://place.map.kakao.com/8057086"
    },
    {
        "placeName": "방애오름",
        "category": "여행 > 관광,명소 > 오름",
        "addressJibun": "제주특별자치도 서귀포시 동홍동 산 1-1",
        "longitude": 126.527535762491680,
        "latitude": 33.354269498653906,
        "placeUrl": "http://place.map.kakao.com/7890028"
    },
    {
        "placeName": "각시바위",
        "category": "여행 > 관광,명소 > 오름",
        "addressJibun": "제주특별자치도 서귀포시 호근동 2112",
        "longitude": 126.526152459161000,
        "latitude": 33.276774588324500,
        "placeUrl": "http://place.map.kakao.com/8675561"
    },
    {
        "placeName": "망밭",
        "category": "여행 > 관광,명소 > 오름",
        "addressJibun": "제주특별자치도 서귀포시 서호동 73",
        "longitude": 126.524188874206800,
        "latitude": 33.241994042469620,
        "placeUrl": "http://place.map.kakao.com/10349145"
    },
    {
        "placeName": "오구시오름",
        "category": "여행 > 관광,명소 > 오름",
        "addressJibun": "제주특별자치도 제주시 오등동 570-1",
        "longitude": 126.535060851703360,
        "latitude": 33.470025270895576,
        "placeUrl": "http://place.map.kakao.com/8011701"
    },
    {
        "placeName": "능화오름",
        "category": "여행 > 관광,명소 > 오름",
        "addressJibun": "제주특별자치도 제주시 오라이동 산 107-20",
        "longitude": 126.534136678296600,
        "latitude": 33.400208048616010,
        "placeUrl": "http://place.map.kakao.com/10276903"
    },
    {
        "placeName": "섯거제",
        "category": "여행 > 관광,명소 > 오름",
        "addressJibun": "제주특별자치도 서귀포시 호근동 520-23",
        "longitude": 126.538290230093860,
        "latitude": 33.247452457259710,
        "placeUrl": "http://place.map.kakao.com/7890597"
    },
    {
        "placeName": "쌀오름",
        "category": "여행 > 관광,명소 > 오름",
        "addressJibun": "제주특별자치도 서귀포시 동홍동 2195",
        "longitude": 126.554491603834860,
        "latitude": 33.300608323125790,
        "placeUrl": "http://place.map.kakao.com/25302677"
    },
    {
        "placeName": "권제오름",
        "category": "여행 > 관광,명소 > 오름",
        "addressJibun": "제주특별자치도 제주시 아라일동 350",
        "longitude": 126.558313638849460,
        "latitude": 33.456919008202130,
        "placeUrl": "http://place.map.kakao.com/8676017"
    },
    {
        "placeName": "세미양오름",
        "category": "여행 > 관광,명소 > 오름",
        "addressJibun": "제주특별자치도 제주시 아라일동 산 24-2",
        "longitude": 126.562296840561000,
        "latitude": 33.439111175849900,
        "placeUrl": "http://place.map.kakao.com/7953866"
    },
    {
        "placeName": "한라산 입석오름",
        "category": "여행 > 관광,명소 > 오름",
        "addressJibun": "제주특별자치도 서귀포시 남원읍 하례리 산 2-1",
        "longitude": 126.555613456996000,
        "latitude": 33.360088491090400,
        "placeUrl": "http://place.map.kakao.com/8054017"
    }
]